<?xml version="1.0" encoding="UTF-8"?>
<gpx
version="1.1"
creator="Created by My Tracks from Daniel Qin"
xmlns="http://www.topografix.com/GPX/1/1"
xmlns:topografix="http://www.topografix.com/GPX/Private/TopoGrafix/0/1"
xmlns:xsi="http://www.w3.org/2001/XMLSchema-instance"
xsi:schemaLocation="http://www.topografix.com/GPX/1/1 http://www.topografix.com/GPX/1/1/gpx.xsd http://www.topografix.com/GPX/Private/TopoGrafix/0/1 http://www.topografix.com/GPX/Private/TopoGrafix/0/1/topografix.xsd">
<metadata>
<name><![CDATA[Dome]]></name>
<desc><![CDATA[Hwy]]></desc>
</metadata>
<trk>
<name><![CDATA[Dome]]></name>
<desc><![CDATA[Hwy]]></desc>
<type><![CDATA[19]]></type>
<extensions><topografix:color>3A73E2</topografix:color></extensions>
<trkseg>
<trkpt lat="45.456439" lon="-75.618654">
<ele>33</ele>
<time>2025-10-03T00:09:53.310Z</time>
</trkpt>
<trkpt lat="45.456437" lon="-75.618654">
<ele>33</ele>
<time>2025-10-03T00:09:54.309Z</time>
</trkpt>
<trkpt lat="45.456446" lon="-75.61865">
<ele>33</ele>
<time>2025-10-03T00:09:55.310Z</time>
</trkpt>
<trkpt lat="45.456466" lon="-75.618661">
<ele>33</ele>
<time>2025-10-03T00:09:56.308Z</time>
</trkpt>
<trkpt lat="45.456469" lon="-75.618662">
<ele>33</ele>
<time>2025-10-03T00:09:57.321Z</time>
</trkpt>
<trkpt lat="45.456479" lon="-75.618679">
<ele>33</ele>
<time>2025-10-03T00:09:58.309Z</time>
</trkpt>
<trkpt lat="45.45648" lon="-75.618683">
<ele>33</ele>
<time>2025-10-03T00:09:59.309Z</time>
</trkpt>
<trkpt lat="45.456481" lon="-75.618686">
<ele>33</ele>
<time>2025-10-03T00:10:00.309Z</time>
</trkpt>
<trkpt lat="45.456482" lon="-75.618684">
<ele>33</ele>
<time>2025-10-03T00:10:01.309Z</time>
</trkpt>
<trkpt lat="45.456482" lon="-75.618679">
<ele>33</ele>
<time>2025-10-03T00:10:02.309Z</time>
</trkpt>
<trkpt lat="45.456478" lon="-75.618674">
<ele>33</ele>
<time>2025-10-03T00:10:03.309Z</time>
</trkpt>
<trkpt lat="45.456475" lon="-75.618675">
<ele>33</ele>
<time>2025-10-03T00:10:04.309Z</time>
</trkpt>
<trkpt lat="45.456477" lon="-75.61868">
<ele>32.9</ele>
<time>2025-10-03T00:10:05.309Z</time>
</trkpt>
<trkpt lat="45.456482" lon="-75.618683">
<ele>32.9</ele>
<time>2025-10-03T00:10:06.308Z</time>
</trkpt>
<trkpt lat="45.456487" lon="-75.618691">
<ele>32.9</ele>
<time>2025-10-03T00:10:07.310Z</time>
</trkpt>
<trkpt lat="45.456493" lon="-75.618696">
<ele>32.9</ele>
<time>2025-10-03T00:10:08.309Z</time>
</trkpt>
<trkpt lat="45.456498" lon="-75.618701">
<ele>32.9</ele>
<time>2025-10-03T00:10:09.308Z</time>
</trkpt>
<trkpt lat="45.456504" lon="-75.618706">
<ele>32.9</ele>
<time>2025-10-03T00:10:10.309Z</time>
</trkpt>
<trkpt lat="45.456507" lon="-75.618709">
<ele>32.9</ele>
<time>2025-10-03T00:10:11.310Z</time>
</trkpt>
<trkpt lat="45.456511" lon="-75.61871">
<ele>33</ele>
<time>2025-10-03T00:10:12.309Z</time>
</trkpt>
<trkpt lat="45.456515" lon="-75.618711">
<ele>33</ele>
<time>2025-10-03T00:10:13.310Z</time>
</trkpt>
<trkpt lat="45.456528" lon="-75.618702">
<ele>33</ele>
<time>2025-10-03T00:10:14.309Z</time>
</trkpt>
<trkpt lat="45.456546" lon="-75.618691">
<ele>33</ele>
<time>2025-10-03T00:10:15.310Z</time>
</trkpt>
<trkpt lat="45.456563" lon="-75.618672">
<ele>33</ele>
<time>2025-10-03T00:10:16.310Z</time>
</trkpt>
<trkpt lat="45.456579" lon="-75.618654">
<ele>33</ele>
<time>2025-10-03T00:10:17.310Z</time>
</trkpt>
<trkpt lat="45.456594" lon="-75.618638">
<ele>33</ele>
<time>2025-10-03T00:10:18.309Z</time>
</trkpt>
<trkpt lat="45.456609" lon="-75.618619">
<ele>33</ele>
<time>2025-10-03T00:10:19.310Z</time>
</trkpt>
<trkpt lat="45.456622" lon="-75.618601">
<ele>32.9</ele>
<time>2025-10-03T00:10:20.309Z</time>
</trkpt>
<trkpt lat="45.456634" lon="-75.618585">
<ele>32.9</ele>
<time>2025-10-03T00:10:21.309Z</time>
</trkpt>
<trkpt lat="45.456646" lon="-75.618574">
<ele>32.9</ele>
<time>2025-10-03T00:10:22.310Z</time>
</trkpt>
<trkpt lat="45.456655" lon="-75.618563">
<ele>32.9</ele>
<time>2025-10-03T00:10:23.310Z</time>
</trkpt>
<trkpt lat="45.456662" lon="-75.618552">
<ele>32.9</ele>
<time>2025-10-03T00:10:24.310Z</time>
</trkpt>
<trkpt lat="45.456665" lon="-75.618546">
<ele>32.9</ele>
<time>2025-10-03T00:10:25.310Z</time>
</trkpt>
<trkpt lat="45.456668" lon="-75.618535">
<ele>32.9</ele>
<time>2025-10-03T00:10:26.310Z</time>
</trkpt>
<trkpt lat="45.456668" lon="-75.618521">
<ele>32.9</ele>
<time>2025-10-03T00:10:27.310Z</time>
</trkpt>
<trkpt lat="45.456667" lon="-75.618515">
<ele>32.9</ele>
<time>2025-10-03T00:10:28.310Z</time>
</trkpt>
<trkpt lat="45.456668" lon="-75.618517">
<ele>32.9</ele>
<time>2025-10-03T00:10:29.310Z</time>
</trkpt>
<trkpt lat="45.456669" lon="-75.618521">
<ele>32.9</ele>
<time>2025-10-03T00:10:30.310Z</time>
</trkpt>
<trkpt lat="45.456685" lon="-75.618551">
<ele>32.9</ele>
<time>2025-10-03T00:10:31.310Z</time>
</trkpt>
<trkpt lat="45.456703" lon="-75.61858">
<ele>32.9</ele>
<time>2025-10-03T00:10:32.309Z</time>
</trkpt>
<trkpt lat="45.456732" lon="-75.618604">
<ele>33.5</ele>
<time>2025-10-03T00:10:33.310Z</time>
</trkpt>
<trkpt lat="45.456781" lon="-75.618626">
<ele>33.5</ele>
<time>2025-10-03T00:10:34.309Z</time>
</trkpt>
<trkpt lat="45.456837" lon="-75.618649">
<ele>33.5</ele>
<time>2025-10-03T00:10:35.310Z</time>
</trkpt>
<trkpt lat="45.456916" lon="-75.618685">
<ele>33.5</ele>
<time>2025-10-03T00:10:36.310Z</time>
</trkpt>
<trkpt lat="45.457003" lon="-75.618725">
<ele>33.6</ele>
<time>2025-10-03T00:10:37.310Z</time>
</trkpt>
<trkpt lat="45.457089" lon="-75.61877">
<ele>33.6</ele>
<time>2025-10-03T00:10:38.310Z</time>
</trkpt>
<trkpt lat="45.457171" lon="-75.618812">
<ele>33.6</ele>
<time>2025-10-03T00:10:39.310Z</time>
</trkpt>
<trkpt lat="45.457239" lon="-75.618848">
<ele>33.6</ele>
<time>2025-10-03T00:10:40.310Z</time>
</trkpt>
<trkpt lat="45.457293" lon="-75.618879">
<ele>33.6</ele>
<time>2025-10-03T00:10:41.310Z</time>
</trkpt>
<trkpt lat="45.457347" lon="-75.618893">
<ele>33.6</ele>
<time>2025-10-03T00:10:42.310Z</time>
</trkpt>
<trkpt lat="45.457392" lon="-75.618877">
<ele>33.6</ele>
<time>2025-10-03T00:10:43.309Z</time>
</trkpt>
<trkpt lat="45.457428" lon="-75.618836">
<ele>33.6</ele>
<time>2025-10-03T00:10:44.310Z</time>
</trkpt>
<trkpt lat="45.457451" lon="-75.618772">
<ele>33.6</ele>
<time>2025-10-03T00:10:45.310Z</time>
</trkpt>
<trkpt lat="45.457472" lon="-75.618693">
<ele>33.6</ele>
<time>2025-10-03T00:10:46.310Z</time>
</trkpt>
<trkpt lat="45.457497" lon="-75.618593">
<ele>33.6</ele>
<time>2025-10-03T00:10:47.310Z</time>
</trkpt>
<trkpt lat="45.457526" lon="-75.618478">
<ele>33.6</ele>
<time>2025-10-03T00:10:48.309Z</time>
</trkpt>
<trkpt lat="45.457557" lon="-75.618351">
<ele>33.6</ele>
<time>2025-10-03T00:10:49.310Z</time>
</trkpt>
<trkpt lat="45.457592" lon="-75.61822">
<ele>33.6</ele>
<time>2025-10-03T00:10:50.310Z</time>
</trkpt>
<trkpt lat="45.457624" lon="-75.618086">
<ele>33.6</ele>
<time>2025-10-03T00:10:51.310Z</time>
</trkpt>
<trkpt lat="45.457659" lon="-75.617953">
<ele>35.8</ele>
<time>2025-10-03T00:10:52.309Z</time>
</trkpt>
<trkpt lat="45.457694" lon="-75.61783">
<ele>36.7</ele>
<time>2025-10-03T00:10:53.309Z</time>
</trkpt>
<trkpt lat="45.457723" lon="-75.617722">
<ele>37.4</ele>
<time>2025-10-03T00:10:54.309Z</time>
</trkpt>
<trkpt lat="45.457747" lon="-75.617641">
<ele>38.4</ele>
<time>2025-10-03T00:10:55.309Z</time>
</trkpt>
<trkpt lat="45.457773" lon="-75.617574">
<ele>38.9</ele>
<time>2025-10-03T00:10:56.310Z</time>
</trkpt>
<trkpt lat="45.457805" lon="-75.617522">
<ele>39.3</ele>
<time>2025-10-03T00:10:57.310Z</time>
</trkpt>
<trkpt lat="45.457851" lon="-75.617494">
<ele>39.6</ele>
<time>2025-10-03T00:10:58.310Z</time>
</trkpt>
<trkpt lat="45.45791" lon="-75.617494">
<ele>39.7</ele>
<time>2025-10-03T00:10:59.310Z</time>
</trkpt>
<trkpt lat="45.457979" lon="-75.617519">
<ele>39.8</ele>
<time>2025-10-03T00:11:00.309Z</time>
</trkpt>
<trkpt lat="45.458058" lon="-75.617559">
<ele>39.9</ele>
<time>2025-10-03T00:11:01.310Z</time>
</trkpt>
<trkpt lat="45.458147" lon="-75.617598">
<ele>40</ele>
<time>2025-10-03T00:11:02.311Z</time>
</trkpt>
<trkpt lat="45.458233" lon="-75.617639">
<ele>40.3</ele>
<time>2025-10-03T00:11:03.309Z</time>
</trkpt>
<trkpt lat="45.458311" lon="-75.617689">
<ele>40.3</ele>
<time>2025-10-03T00:11:04.311Z</time>
</trkpt>
<trkpt lat="45.458384" lon="-75.617749">
<ele>40.3</ele>
<time>2025-10-03T00:11:05.310Z</time>
</trkpt>
<trkpt lat="45.458443" lon="-75.617821">
<ele>40.3</ele>
<time>2025-10-03T00:11:06.310Z</time>
</trkpt>
<trkpt lat="45.458488" lon="-75.617895">
<ele>40.3</ele>
<time>2025-10-03T00:11:07.310Z</time>
</trkpt>
<trkpt lat="45.458517" lon="-75.617946">
<ele>40.3</ele>
<time>2025-10-03T00:11:08.310Z</time>
</trkpt>
<trkpt lat="45.458534" lon="-75.617987">
<ele>39.8</ele>
<time>2025-10-03T00:11:09.311Z</time>
</trkpt>
<trkpt lat="45.458534" lon="-75.617987">
<ele>39.5</ele>
<time>2025-10-03T00:11:10.333Z</time>
</trkpt>
<trkpt lat="45.458549" lon="-75.618089">
<ele>39.2</ele>
<time>2025-10-03T00:11:11.310Z</time>
</trkpt>
<trkpt lat="45.458539" lon="-75.618167">
<ele>39.2</ele>
<time>2025-10-03T00:11:12.310Z</time>
</trkpt>
<trkpt lat="45.458515" lon="-75.618268">
<ele>39.2</ele>
<time>2025-10-03T00:11:13.311Z</time>
</trkpt>
<trkpt lat="45.458487" lon="-75.618395">
<ele>39.2</ele>
<time>2025-10-03T00:11:14.310Z</time>
</trkpt>
<trkpt lat="45.458459" lon="-75.618531">
<ele>39.2</ele>
<time>2025-10-03T00:11:15.310Z</time>
</trkpt>
<trkpt lat="45.458429" lon="-75.618676">
<ele>39.2</ele>
<time>2025-10-03T00:11:16.309Z</time>
</trkpt>
<trkpt lat="45.458402" lon="-75.61882">
<ele>39.7</ele>
<time>2025-10-03T00:11:17.309Z</time>
</trkpt>
<trkpt lat="45.458379" lon="-75.618968">
<ele>40.5</ele>
<time>2025-10-03T00:11:18.311Z</time>
</trkpt>
<trkpt lat="45.458353" lon="-75.619119">
<ele>40.9</ele>
<time>2025-10-03T00:11:19.310Z</time>
</trkpt>
<trkpt lat="45.458329" lon="-75.619273">
<ele>40.9</ele>
<time>2025-10-03T00:11:20.311Z</time>
</trkpt>
<trkpt lat="45.458301" lon="-75.619417">
<ele>40.9</ele>
<time>2025-10-03T00:11:21.311Z</time>
</trkpt>
<trkpt lat="45.458276" lon="-75.61955">
<ele>40.9</ele>
<time>2025-10-03T00:11:22.309Z</time>
</trkpt>
<trkpt lat="45.458256" lon="-75.619682">
<ele>40.9</ele>
<time>2025-10-03T00:11:23.310Z</time>
</trkpt>
<trkpt lat="45.458248" lon="-75.619812">
<ele>40.7</ele>
<time>2025-10-03T00:11:24.310Z</time>
</trkpt>
<trkpt lat="45.458257" lon="-75.619925">
<ele>39.4</ele>
<time>2025-10-03T00:11:25.310Z</time>
</trkpt>
<trkpt lat="45.458287" lon="-75.62003">
<ele>38</ele>
<time>2025-10-03T00:11:26.310Z</time>
</trkpt>
<trkpt lat="45.458326" lon="-75.620118">
<ele>35.5</ele>
<time>2025-10-03T00:11:27.309Z</time>
</trkpt>
<trkpt lat="45.45838" lon="-75.620192">
<ele>35.5</ele>
<time>2025-10-03T00:11:28.310Z</time>
</trkpt>
<trkpt lat="45.458442" lon="-75.620264">
<ele>35.5</ele>
<time>2025-10-03T00:11:29.311Z</time>
</trkpt>
<trkpt lat="45.458501" lon="-75.620322">
<ele>33.6</ele>
<time>2025-10-03T00:11:30.311Z</time>
</trkpt>
<trkpt lat="45.458562" lon="-75.620376">
<ele>33.6</ele>
<time>2025-10-03T00:11:31.311Z</time>
</trkpt>
<trkpt lat="45.458621" lon="-75.620434">
<ele>31.8</ele>
<time>2025-10-03T00:11:32.310Z</time>
</trkpt>
<trkpt lat="45.458673" lon="-75.620494">
<ele>31.6</ele>
<time>2025-10-03T00:11:33.311Z</time>
</trkpt>
<trkpt lat="45.458713" lon="-75.620566">
<ele>31.1</ele>
<time>2025-10-03T00:11:34.311Z</time>
</trkpt>
<trkpt lat="45.458728" lon="-75.620648">
<ele>31</ele>
<time>2025-10-03T00:11:35.310Z</time>
</trkpt>
<trkpt lat="45.458725" lon="-75.620738">
<ele>30.9</ele>
<time>2025-10-03T00:11:36.310Z</time>
</trkpt>
<trkpt lat="45.458707" lon="-75.620838">
<ele>30.8</ele>
<time>2025-10-03T00:11:37.310Z</time>
</trkpt>
<trkpt lat="45.458675" lon="-75.620952">
<ele>30.6</ele>
<time>2025-10-03T00:11:38.310Z</time>
</trkpt>
<trkpt lat="45.458641" lon="-75.621071">
<ele>30.2</ele>
<time>2025-10-03T00:11:39.310Z</time>
</trkpt>
<trkpt lat="45.458609" lon="-75.621196">
<ele>30</ele>
<time>2025-10-03T00:11:40.311Z</time>
</trkpt>
<trkpt lat="45.458579" lon="-75.621318">
<ele>30</ele>
<time>2025-10-03T00:11:41.311Z</time>
</trkpt>
<trkpt lat="45.458551" lon="-75.621428">
<ele>29.9</ele>
<time>2025-10-03T00:11:42.311Z</time>
</trkpt>
<trkpt lat="45.458529" lon="-75.621515">
<ele>29.9</ele>
<time>2025-10-03T00:11:43.311Z</time>
</trkpt>
<trkpt lat="45.458514" lon="-75.621571">
<ele>29.9</ele>
<time>2025-10-03T00:11:44.311Z</time>
</trkpt>
<trkpt lat="45.4585" lon="-75.621602">
<ele>29.6</ele>
<time>2025-10-03T00:11:45.310Z</time>
</trkpt>
<trkpt lat="45.458482" lon="-75.621634">
<ele>27.9</ele>
<time>2025-10-03T00:11:46.311Z</time>
</trkpt>
<trkpt lat="45.458447" lon="-75.621661">
<ele>27.9</ele>
<time>2025-10-03T00:11:47.311Z</time>
</trkpt>
<trkpt lat="45.4584" lon="-75.621666">
<ele>27.9</ele>
<time>2025-10-03T00:11:48.311Z</time>
</trkpt>
<trkpt lat="45.458342" lon="-75.621648">
<ele>27.9</ele>
<time>2025-10-03T00:11:49.311Z</time>
</trkpt>
<trkpt lat="45.45827" lon="-75.621612">
<ele>27.9</ele>
<time>2025-10-03T00:11:50.310Z</time>
</trkpt>
<trkpt lat="45.458184" lon="-75.621565">
<ele>27.9</ele>
<time>2025-10-03T00:11:51.311Z</time>
</trkpt>
<trkpt lat="45.458082" lon="-75.621508">
<ele>27.9</ele>
<time>2025-10-03T00:11:52.310Z</time>
</trkpt>
<trkpt lat="45.457968" lon="-75.621443">
<ele>27.9</ele>
<time>2025-10-03T00:11:53.311Z</time>
</trkpt>
<trkpt lat="45.457844" lon="-75.621373">
<ele>30.2</ele>
<time>2025-10-03T00:11:54.311Z</time>
</trkpt>
<trkpt lat="45.457715" lon="-75.621296">
<ele>31</ele>
<time>2025-10-03T00:11:55.311Z</time>
</trkpt>
<trkpt lat="45.457586" lon="-75.621218">
<ele>33.6</ele>
<time>2025-10-03T00:11:56.311Z</time>
</trkpt>
<trkpt lat="45.457454" lon="-75.621141">
<ele>33.6</ele>
<time>2025-10-03T00:11:57.310Z</time>
</trkpt>
<trkpt lat="45.457326" lon="-75.621067">
<ele>35.5</ele>
<time>2025-10-03T00:11:58.311Z</time>
</trkpt>
<trkpt lat="45.457199" lon="-75.62099">
<ele>35.5</ele>
<time>2025-10-03T00:11:59.311Z</time>
</trkpt>
<trkpt lat="45.457068" lon="-75.620917">
<ele>38.8</ele>
<time>2025-10-03T00:12:00.311Z</time>
</trkpt>
<trkpt lat="45.456934" lon="-75.620842">
<ele>41</ele>
<time>2025-10-03T00:12:01.311Z</time>
</trkpt>
<trkpt lat="45.456793" lon="-75.62076">
<ele>42.8</ele>
<time>2025-10-03T00:12:02.311Z</time>
</trkpt>
<trkpt lat="45.45665" lon="-75.620678">
<ele>44.3</ele>
<time>2025-10-03T00:12:03.310Z</time>
</trkpt>
<trkpt lat="45.456505" lon="-75.620598">
<ele>46</ele>
<time>2025-10-03T00:12:04.311Z</time>
</trkpt>
<trkpt lat="45.456361" lon="-75.620517">
<ele>47.2</ele>
<time>2025-10-03T00:12:05.311Z</time>
</trkpt>
<trkpt lat="45.456217" lon="-75.620437">
<ele>48.5</ele>
<time>2025-10-03T00:12:06.311Z</time>
</trkpt>
<trkpt lat="45.456073" lon="-75.620357">
<ele>49.7</ele>
<time>2025-10-03T00:12:07.310Z</time>
</trkpt>
<trkpt lat="45.455929" lon="-75.620278">
<ele>50.8</ele>
<time>2025-10-03T00:12:08.311Z</time>
</trkpt>
<trkpt lat="45.455782" lon="-75.620198">
<ele>52.2</ele>
<time>2025-10-03T00:12:09.311Z</time>
</trkpt>
<trkpt lat="45.45564" lon="-75.620121">
<ele>53.5</ele>
<time>2025-10-03T00:12:10.310Z</time>
</trkpt>
<trkpt lat="45.45549" lon="-75.620041">
<ele>55</ele>
<time>2025-10-03T00:12:11.311Z</time>
</trkpt>
<trkpt lat="45.455338" lon="-75.61996">
<ele>57</ele>
<time>2025-10-03T00:12:12.311Z</time>
</trkpt>
<trkpt lat="45.455188" lon="-75.619876">
<ele>58.8</ele>
<time>2025-10-03T00:12:13.311Z</time>
</trkpt>
<trkpt lat="45.455035" lon="-75.619791">
<ele>60.4</ele>
<time>2025-10-03T00:12:14.311Z</time>
</trkpt>
<trkpt lat="45.454881" lon="-75.619709">
<ele>62.7</ele>
<time>2025-10-03T00:12:15.311Z</time>
</trkpt>
<trkpt lat="45.454731" lon="-75.619629">
<ele>64.1</ele>
<time>2025-10-03T00:12:16.310Z</time>
</trkpt>
<trkpt lat="45.454585" lon="-75.61955">
<ele>65.5</ele>
<time>2025-10-03T00:12:17.311Z</time>
</trkpt>
<trkpt lat="45.454442" lon="-75.619474">
<ele>67</ele>
<time>2025-10-03T00:12:18.311Z</time>
</trkpt>
<trkpt lat="45.454301" lon="-75.6194">
<ele>68.6</ele>
<time>2025-10-03T00:12:19.311Z</time>
</trkpt>
<trkpt lat="45.454158" lon="-75.619325">
<ele>69.6</ele>
<time>2025-10-03T00:12:20.312Z</time>
</trkpt>
<trkpt lat="45.454011" lon="-75.61925">
<ele>70.3</ele>
<time>2025-10-03T00:12:21.311Z</time>
</trkpt>
<trkpt lat="45.453868" lon="-75.619177">
<ele>71.2</ele>
<time>2025-10-03T00:12:22.311Z</time>
</trkpt>
<trkpt lat="45.45373" lon="-75.619102">
<ele>71.5</ele>
<time>2025-10-03T00:12:23.311Z</time>
</trkpt>
<trkpt lat="45.453586" lon="-75.619018">
<ele>71.6</ele>
<time>2025-10-03T00:12:24.312Z</time>
</trkpt>
<trkpt lat="45.453435" lon="-75.61893">
<ele>71.8</ele>
<time>2025-10-03T00:12:25.311Z</time>
</trkpt>
<trkpt lat="45.45328" lon="-75.618844">
<ele>71.9</ele>
<time>2025-10-03T00:12:26.311Z</time>
</trkpt>
<trkpt lat="45.453121" lon="-75.61876">
<ele>71.9</ele>
<time>2025-10-03T00:12:27.311Z</time>
</trkpt>
<trkpt lat="45.452963" lon="-75.618676">
<ele>71.9</ele>
<time>2025-10-03T00:12:28.312Z</time>
</trkpt>
<trkpt lat="45.452807" lon="-75.618592">
<ele>71.8</ele>
<time>2025-10-03T00:12:29.312Z</time>
</trkpt>
<trkpt lat="45.452654" lon="-75.618513">
<ele>71.7</ele>
<time>2025-10-03T00:12:30.311Z</time>
</trkpt>
<trkpt lat="45.4525" lon="-75.618429">
<ele>71.6</ele>
<time>2025-10-03T00:12:31.311Z</time>
</trkpt>
<trkpt lat="45.452344" lon="-75.618344">
<ele>71.5</ele>
<time>2025-10-03T00:12:32.312Z</time>
</trkpt>
<trkpt lat="45.452187" lon="-75.618259">
<ele>71.3</ele>
<time>2025-10-03T00:12:33.311Z</time>
</trkpt>
<trkpt lat="45.45203" lon="-75.618174">
<ele>71.2</ele>
<time>2025-10-03T00:12:34.311Z</time>
</trkpt>
<trkpt lat="45.451871" lon="-75.618087">
<ele>71</ele>
<time>2025-10-03T00:12:35.311Z</time>
</trkpt>
<trkpt lat="45.451712" lon="-75.617998">
<ele>70.9</ele>
<time>2025-10-03T00:12:36.311Z</time>
</trkpt>
<trkpt lat="45.451556" lon="-75.617913">
<ele>70.9</ele>
<time>2025-10-03T00:12:37.310Z</time>
</trkpt>
<trkpt lat="45.451404" lon="-75.617829">
<ele>70.9</ele>
<time>2025-10-03T00:12:38.312Z</time>
</trkpt>
<trkpt lat="45.451258" lon="-75.617746">
<ele>70.9</ele>
<time>2025-10-03T00:12:39.312Z</time>
</trkpt>
<trkpt lat="45.45111" lon="-75.617662">
<ele>70.9</ele>
<time>2025-10-03T00:12:40.311Z</time>
</trkpt>
<trkpt lat="45.45096" lon="-75.617581">
<ele>71.2</ele>
<time>2025-10-03T00:12:41.312Z</time>
</trkpt>
<trkpt lat="45.450812" lon="-75.617499">
<ele>71.9</ele>
<time>2025-10-03T00:12:42.312Z</time>
</trkpt>
<trkpt lat="45.450659" lon="-75.617418">
<ele>73.5</ele>
<time>2025-10-03T00:12:43.312Z</time>
</trkpt>
<trkpt lat="45.450503" lon="-75.617338">
<ele>74.8</ele>
<time>2025-10-03T00:12:44.312Z</time>
</trkpt>
<trkpt lat="45.450348" lon="-75.617253">
<ele>75.9</ele>
<time>2025-10-03T00:12:45.312Z</time>
</trkpt>
<trkpt lat="45.450197" lon="-75.617168">
<ele>76.6</ele>
<time>2025-10-03T00:12:46.311Z</time>
</trkpt>
<trkpt lat="45.450049" lon="-75.617085">
<ele>77.3</ele>
<time>2025-10-03T00:12:47.312Z</time>
</trkpt>
<trkpt lat="45.449899" lon="-75.617004">
<ele>77.8</ele>
<time>2025-10-03T00:12:48.312Z</time>
</trkpt>
<trkpt lat="45.449746" lon="-75.616922">
<ele>78.1</ele>
<time>2025-10-03T00:12:49.311Z</time>
</trkpt>
<trkpt lat="45.44959" lon="-75.616841">
<ele>78.6</ele>
<time>2025-10-03T00:12:50.311Z</time>
</trkpt>
<trkpt lat="45.449434" lon="-75.616757">
<ele>78.6</ele>
<time>2025-10-03T00:12:51.311Z</time>
</trkpt>
<trkpt lat="45.449278" lon="-75.61667">
<ele>78.6</ele>
<time>2025-10-03T00:12:52.311Z</time>
</trkpt>
<trkpt lat="45.449121" lon="-75.616586">
<ele>78.6</ele>
<time>2025-10-03T00:12:53.312Z</time>
</trkpt>
<trkpt lat="45.448966" lon="-75.616501">
<ele>78.6</ele>
<time>2025-10-03T00:12:54.312Z</time>
</trkpt>
<trkpt lat="45.448812" lon="-75.616416">
<ele>78.6</ele>
<time>2025-10-03T00:12:55.311Z</time>
</trkpt>
<trkpt lat="45.448663" lon="-75.616335">
<ele>78.4</ele>
<time>2025-10-03T00:12:56.312Z</time>
</trkpt>
<trkpt lat="45.448517" lon="-75.616258">
<ele>78.1</ele>
<time>2025-10-03T00:12:57.312Z</time>
</trkpt>
<trkpt lat="45.448375" lon="-75.616182">
<ele>77.6</ele>
<time>2025-10-03T00:12:58.313Z</time>
</trkpt>
<trkpt lat="45.44824" lon="-75.616109">
<ele>77.3</ele>
<time>2025-10-03T00:12:59.312Z</time>
</trkpt>
<trkpt lat="45.448109" lon="-75.616041">
<ele>76.7</ele>
<time>2025-10-03T00:13:00.312Z</time>
</trkpt>
<trkpt lat="45.44798" lon="-75.615974">
<ele>76.4</ele>
<time>2025-10-03T00:13:01.311Z</time>
</trkpt>
<trkpt lat="45.44785" lon="-75.61591">
<ele>76.2</ele>
<time>2025-10-03T00:13:02.312Z</time>
</trkpt>
<trkpt lat="45.447723" lon="-75.615841">
<ele>75.8</ele>
<time>2025-10-03T00:13:03.311Z</time>
</trkpt>
<trkpt lat="45.447604" lon="-75.615778">
<ele>75.6</ele>
<time>2025-10-03T00:13:04.311Z</time>
</trkpt>
<trkpt lat="45.44749" lon="-75.615719">
<ele>75.4</ele>
<time>2025-10-03T00:13:05.312Z</time>
</trkpt>
<trkpt lat="45.447383" lon="-75.615665">
<ele>75.2</ele>
<time>2025-10-03T00:13:06.311Z</time>
</trkpt>
<trkpt lat="45.447283" lon="-75.61562">
<ele>74.9</ele>
<time>2025-10-03T00:13:07.312Z</time>
</trkpt>
<trkpt lat="45.447192" lon="-75.615581">
<ele>74.1</ele>
<time>2025-10-03T00:13:08.311Z</time>
</trkpt>
<trkpt lat="45.44711" lon="-75.615546">
<ele>73.7</ele>
<time>2025-10-03T00:13:09.312Z</time>
</trkpt>
<trkpt lat="45.447038" lon="-75.615512">
<ele>73.1</ele>
<time>2025-10-03T00:13:10.312Z</time>
</trkpt>
<trkpt lat="45.446972" lon="-75.615481">
<ele>72.7</ele>
<time>2025-10-03T00:13:11.312Z</time>
</trkpt>
<trkpt lat="45.446915" lon="-75.615452">
<ele>72.1</ele>
<time>2025-10-03T00:13:12.312Z</time>
</trkpt>
<trkpt lat="45.446865" lon="-75.615425">
<ele>71.4</ele>
<time>2025-10-03T00:13:13.312Z</time>
</trkpt>
<trkpt lat="45.446819" lon="-75.615402">
<ele>70.8</ele>
<time>2025-10-03T00:13:14.312Z</time>
</trkpt>
<trkpt lat="45.446779" lon="-75.615381">
<ele>70.4</ele>
<time>2025-10-03T00:13:15.311Z</time>
</trkpt>
<trkpt lat="45.446746" lon="-75.615363">
<ele>69.8</ele>
<time>2025-10-03T00:13:16.312Z</time>
</trkpt>
<trkpt lat="45.44672" lon="-75.615348">
<ele>69.4</ele>
<time>2025-10-03T00:13:17.312Z</time>
</trkpt>
<trkpt lat="45.446699" lon="-75.615336">
<ele>69.2</ele>
<time>2025-10-03T00:13:18.311Z</time>
</trkpt>
<trkpt lat="45.446684" lon="-75.615324">
<ele>68.9</ele>
<time>2025-10-03T00:13:19.311Z</time>
</trkpt>
<trkpt lat="45.446676" lon="-75.61532">
<ele>68.6</ele>
<time>2025-10-03T00:13:20.312Z</time>
</trkpt>
<trkpt lat="45.446675" lon="-75.61532">
<ele>68.4</ele>
<time>2025-10-03T00:13:21.312Z</time>
</trkpt>
<trkpt lat="45.446676" lon="-75.61532">
<ele>68.3</ele>
<time>2025-10-03T00:13:22.312Z</time>
</trkpt>
<trkpt lat="45.446677" lon="-75.615321">
<ele>68.2</ele>
<time>2025-10-03T00:13:23.312Z</time>
</trkpt>
<trkpt lat="45.446677" lon="-75.615321">
<ele>68.1</ele>
<time>2025-10-03T00:13:24.312Z</time>
</trkpt>
<trkpt lat="45.446677" lon="-75.615321">
<ele>68</ele>
<time>2025-10-03T00:13:25.312Z</time>
</trkpt>
<trkpt lat="45.446677" lon="-75.615321">
<ele>68</ele>
<time>2025-10-03T00:13:26.312Z</time>
</trkpt>
<trkpt lat="45.446677" lon="-75.615321">
<ele>68</ele>
<time>2025-10-03T00:13:27.312Z</time>
</trkpt>
<trkpt lat="45.446677" lon="-75.615321">
<ele>68</ele>
<time>2025-10-03T00:13:28.311Z</time>
</trkpt>
<trkpt lat="45.446677" lon="-75.615321">
<ele>69.2</ele>
<time>2025-10-03T00:13:29.311Z</time>
</trkpt>
<trkpt lat="45.446677" lon="-75.615321">
<ele>69.2</ele>
<time>2025-10-03T00:13:30.312Z</time>
</trkpt>
<trkpt lat="45.446677" lon="-75.615321">
<ele>69.2</ele>
<time>2025-10-03T00:13:31.311Z</time>
</trkpt>
<trkpt lat="45.446677" lon="-75.615321">
<ele>69.2</ele>
<time>2025-10-03T00:13:32.312Z</time>
</trkpt>
<trkpt lat="45.446683" lon="-75.615324">
<ele>68</ele>
<time>2025-10-03T00:13:33.312Z</time>
</trkpt>
<trkpt lat="45.446683" lon="-75.615324">
<ele>68.1</ele>
<time>2025-10-03T00:13:34.312Z</time>
</trkpt>
<trkpt lat="45.446673" lon="-75.615319">
<ele>68.1</ele>
<time>2025-10-03T00:13:35.312Z</time>
</trkpt>
<trkpt lat="45.446657" lon="-75.615311">
<ele>68.2</ele>
<time>2025-10-03T00:13:36.312Z</time>
</trkpt>
<trkpt lat="45.446637" lon="-75.615301">
<ele>68.2</ele>
<time>2025-10-03T00:13:37.312Z</time>
</trkpt>
<trkpt lat="45.44662" lon="-75.615291">
<ele>69.2</ele>
<time>2025-10-03T00:13:38.312Z</time>
</trkpt>
<trkpt lat="45.446603" lon="-75.615282">
<ele>69.2</ele>
<time>2025-10-03T00:13:39.312Z</time>
</trkpt>
<trkpt lat="45.446591" lon="-75.615273">
<ele>69.2</ele>
<time>2025-10-03T00:13:40.312Z</time>
</trkpt>
<trkpt lat="45.446579" lon="-75.615264">
<ele>69.2</ele>
<time>2025-10-03T00:13:41.312Z</time>
</trkpt>
<trkpt lat="45.446559" lon="-75.615248">
<ele>68.4</ele>
<time>2025-10-03T00:13:42.311Z</time>
</trkpt>
<trkpt lat="45.446539" lon="-75.615228">
<ele>68.3</ele>
<time>2025-10-03T00:13:43.312Z</time>
</trkpt>
<trkpt lat="45.446524" lon="-75.615211">
<ele>68.3</ele>
<time>2025-10-03T00:13:44.312Z</time>
</trkpt>
<trkpt lat="45.4465" lon="-75.615185">
<ele>68.3</ele>
<time>2025-10-03T00:13:45.312Z</time>
</trkpt>
<trkpt lat="45.446465" lon="-75.615134">
<ele>68.4</ele>
<time>2025-10-03T00:13:46.311Z</time>
</trkpt>
<trkpt lat="45.446429" lon="-75.615052">
<ele>69.2</ele>
<time>2025-10-03T00:13:47.312Z</time>
</trkpt>
<trkpt lat="45.446401" lon="-75.614945">
<ele>69.2</ele>
<time>2025-10-03T00:13:48.313Z</time>
</trkpt>
<trkpt lat="45.446383" lon="-75.614817">
<ele>69.2</ele>
<time>2025-10-03T00:13:49.313Z</time>
</trkpt>
<trkpt lat="45.446371" lon="-75.614675">
<ele>69.2</ele>
<time>2025-10-03T00:13:50.312Z</time>
</trkpt>
<trkpt lat="45.446357" lon="-75.614517">
<ele>69.2</ele>
<time>2025-10-03T00:13:51.312Z</time>
</trkpt>
<trkpt lat="45.446341" lon="-75.614344">
<ele>69.4</ele>
<time>2025-10-03T00:13:52.312Z</time>
</trkpt>
<trkpt lat="45.446326" lon="-75.614162">
<ele>69.6</ele>
<time>2025-10-03T00:13:53.313Z</time>
</trkpt>
<trkpt lat="45.446311" lon="-75.613969">
<ele>69.9</ele>
<time>2025-10-03T00:13:54.312Z</time>
</trkpt>
<trkpt lat="45.446295" lon="-75.61377">
<ele>70.2</ele>
<time>2025-10-03T00:13:55.313Z</time>
</trkpt>
<trkpt lat="45.44628" lon="-75.613569">
<ele>70.5</ele>
<time>2025-10-03T00:13:56.311Z</time>
</trkpt>
<trkpt lat="45.446266" lon="-75.613366">
<ele>70.8</ele>
<time>2025-10-03T00:13:57.312Z</time>
</trkpt>
<trkpt lat="45.446251" lon="-75.613161">
<ele>71.2</ele>
<time>2025-10-03T00:13:58.313Z</time>
</trkpt>
<trkpt lat="45.446236" lon="-75.61295">
<ele>71.6</ele>
<time>2025-10-03T00:13:59.313Z</time>
</trkpt>
<trkpt lat="45.446222" lon="-75.612737">
<ele>71.8</ele>
<time>2025-10-03T00:14:00.313Z</time>
</trkpt>
<trkpt lat="45.446205" lon="-75.612523">
<ele>72.1</ele>
<time>2025-10-03T00:14:01.313Z</time>
</trkpt>
<trkpt lat="45.446187" lon="-75.612308">
<ele>72.5</ele>
<time>2025-10-03T00:14:02.313Z</time>
</trkpt>
<trkpt lat="45.446169" lon="-75.612098">
<ele>73</ele>
<time>2025-10-03T00:14:03.313Z</time>
</trkpt>
<trkpt lat="45.446152" lon="-75.611891">
<ele>73.4</ele>
<time>2025-10-03T00:14:04.313Z</time>
</trkpt>
<trkpt lat="45.446134" lon="-75.611682">
<ele>73.9</ele>
<time>2025-10-03T00:14:05.314Z</time>
</trkpt>
<trkpt lat="45.446117" lon="-75.611468">
<ele>74.5</ele>
<time>2025-10-03T00:14:06.313Z</time>
</trkpt>
<trkpt lat="45.4461" lon="-75.61125">
<ele>75</ele>
<time>2025-10-03T00:14:07.313Z</time>
</trkpt>
<trkpt lat="45.446082" lon="-75.611037">
<ele>75.5</ele>
<time>2025-10-03T00:14:08.313Z</time>
</trkpt>
<trkpt lat="45.446062" lon="-75.610825">
<ele>76.5</ele>
<time>2025-10-03T00:14:09.313Z</time>
</trkpt>
<trkpt lat="45.446042" lon="-75.610614">
<ele>77.2</ele>
<time>2025-10-03T00:14:10.313Z</time>
</trkpt>
<trkpt lat="45.446024" lon="-75.610405">
<ele>78.1</ele>
<time>2025-10-03T00:14:11.313Z</time>
</trkpt>
<trkpt lat="45.446005" lon="-75.610199">
<ele>78.4</ele>
<time>2025-10-03T00:14:12.312Z</time>
</trkpt>
<trkpt lat="45.445985" lon="-75.609994">
<ele>79.6</ele>
<time>2025-10-03T00:14:13.312Z</time>
</trkpt>
<trkpt lat="45.445964" lon="-75.609789">
<ele>80.1</ele>
<time>2025-10-03T00:14:14.313Z</time>
</trkpt>
<trkpt lat="45.445941" lon="-75.609581">
<ele>80.2</ele>
<time>2025-10-03T00:14:15.313Z</time>
</trkpt>
<trkpt lat="45.445915" lon="-75.609375">
<ele>80.4</ele>
<time>2025-10-03T00:14:16.312Z</time>
</trkpt>
<trkpt lat="45.445887" lon="-75.60916">
<ele>80.7</ele>
<time>2025-10-03T00:14:17.313Z</time>
</trkpt>
<trkpt lat="45.445857" lon="-75.608948">
<ele>80.9</ele>
<time>2025-10-03T00:14:18.313Z</time>
</trkpt>
<trkpt lat="45.445831" lon="-75.608732">
<ele>81</ele>
<time>2025-10-03T00:14:19.313Z</time>
</trkpt>
<trkpt lat="45.445803" lon="-75.608514">
<ele>81</ele>
<time>2025-10-03T00:14:20.313Z</time>
</trkpt>
<trkpt lat="45.445774" lon="-75.608294">
<ele>81</ele>
<time>2025-10-03T00:14:21.313Z</time>
</trkpt>
<trkpt lat="45.445744" lon="-75.60807">
<ele>81</ele>
<time>2025-10-03T00:14:22.312Z</time>
</trkpt>
<trkpt lat="45.445712" lon="-75.607845">
<ele>81</ele>
<time>2025-10-03T00:14:23.313Z</time>
</trkpt>
<trkpt lat="45.445683" lon="-75.607615">
<ele>80.9</ele>
<time>2025-10-03T00:14:24.312Z</time>
</trkpt>
<trkpt lat="45.445655" lon="-75.607386">
<ele>80.5</ele>
<time>2025-10-03T00:14:25.312Z</time>
</trkpt>
<trkpt lat="45.445629" lon="-75.607159">
<ele>79.9</ele>
<time>2025-10-03T00:14:26.312Z</time>
</trkpt>
<trkpt lat="45.4456" lon="-75.606938">
<ele>79.2</ele>
<time>2025-10-03T00:14:27.313Z</time>
</trkpt>
<trkpt lat="45.445571" lon="-75.606718">
<ele>78.6</ele>
<time>2025-10-03T00:14:28.312Z</time>
</trkpt>
<trkpt lat="45.445539" lon="-75.6065">
<ele>77.8</ele>
<time>2025-10-03T00:14:29.313Z</time>
</trkpt>
<trkpt lat="45.445507" lon="-75.606281">
<ele>77.3</ele>
<time>2025-10-03T00:14:30.314Z</time>
</trkpt>
<trkpt lat="45.445479" lon="-75.606061">
<ele>76</ele>
<time>2025-10-03T00:14:31.313Z</time>
</trkpt>
<trkpt lat="45.445453" lon="-75.605839">
<ele>75.4</ele>
<time>2025-10-03T00:14:32.313Z</time>
</trkpt>
<trkpt lat="45.445428" lon="-75.605614">
<ele>74.7</ele>
<time>2025-10-03T00:14:33.313Z</time>
</trkpt>
<trkpt lat="45.445405" lon="-75.605385">
<ele>73.9</ele>
<time>2025-10-03T00:14:34.313Z</time>
</trkpt>
<trkpt lat="45.445379" lon="-75.605149">
<ele>73.4</ele>
<time>2025-10-03T00:14:35.313Z</time>
</trkpt>
<trkpt lat="45.445351" lon="-75.604914">
<ele>72.4</ele>
<time>2025-10-03T00:14:36.313Z</time>
</trkpt>
<trkpt lat="45.445322" lon="-75.604666">
<ele>71.9</ele>
<time>2025-10-03T00:14:37.312Z</time>
</trkpt>
<trkpt lat="45.445292" lon="-75.604416">
<ele>71.4</ele>
<time>2025-10-03T00:14:38.312Z</time>
</trkpt>
<trkpt lat="45.445264" lon="-75.604172">
<ele>71.1</ele>
<time>2025-10-03T00:14:39.312Z</time>
</trkpt>
<trkpt lat="45.445239" lon="-75.603947">
<ele>70.8</ele>
<time>2025-10-03T00:14:40.312Z</time>
</trkpt>
<trkpt lat="45.445216" lon="-75.603743">
<ele>70.6</ele>
<time>2025-10-03T00:14:41.313Z</time>
</trkpt>
<trkpt lat="45.445193" lon="-75.603543">
<ele>70.4</ele>
<time>2025-10-03T00:14:42.312Z</time>
</trkpt>
<trkpt lat="45.445171" lon="-75.603338">
<ele>69.9</ele>
<time>2025-10-03T00:14:43.313Z</time>
</trkpt>
<trkpt lat="45.445149" lon="-75.603131">
<ele>68.7</ele>
<time>2025-10-03T00:14:44.313Z</time>
</trkpt>
<trkpt lat="45.445127" lon="-75.60292">
<ele>67.6</ele>
<time>2025-10-03T00:14:45.313Z</time>
</trkpt>
<trkpt lat="45.445106" lon="-75.602708">
<ele>67.4</ele>
<time>2025-10-03T00:14:46.313Z</time>
</trkpt>
<trkpt lat="45.445091" lon="-75.6025">
<ele>67.3</ele>
<time>2025-10-03T00:14:47.313Z</time>
</trkpt>
<trkpt lat="45.44508" lon="-75.602295">
<ele>67.2</ele>
<time>2025-10-03T00:14:48.312Z</time>
</trkpt>
<trkpt lat="45.445071" lon="-75.602085">
<ele>67.1</ele>
<time>2025-10-03T00:14:49.312Z</time>
</trkpt>
<trkpt lat="45.445063" lon="-75.60187">
<ele>67</ele>
<time>2025-10-03T00:14:50.313Z</time>
</trkpt>
<trkpt lat="45.445058" lon="-75.601657">
<ele>66.8</ele>
<time>2025-10-03T00:14:51.312Z</time>
</trkpt>
<trkpt lat="45.445056" lon="-75.601448">
<ele>66.5</ele>
<time>2025-10-03T00:14:52.313Z</time>
</trkpt>
<trkpt lat="45.445056" lon="-75.601242">
<ele>66.3</ele>
<time>2025-10-03T00:14:53.312Z</time>
</trkpt>
<trkpt lat="45.445061" lon="-75.601038">
<ele>66.1</ele>
<time>2025-10-03T00:14:54.313Z</time>
</trkpt>
<trkpt lat="45.44507" lon="-75.600836">
<ele>65.7</ele>
<time>2025-10-03T00:14:55.314Z</time>
</trkpt>
<trkpt lat="45.445082" lon="-75.600641">
<ele>65.1</ele>
<time>2025-10-03T00:14:56.313Z</time>
</trkpt>
<trkpt lat="45.445098" lon="-75.600448">
<ele>64.6</ele>
<time>2025-10-03T00:14:57.312Z</time>
</trkpt>
<trkpt lat="45.445118" lon="-75.600257">
<ele>64.2</ele>
<time>2025-10-03T00:14:58.312Z</time>
</trkpt>
<trkpt lat="45.445138" lon="-75.600066">
<ele>63.7</ele>
<time>2025-10-03T00:14:59.314Z</time>
</trkpt>
<trkpt lat="45.44516" lon="-75.599878">
<ele>62.9</ele>
<time>2025-10-03T00:15:00.314Z</time>
</trkpt>
<trkpt lat="45.445185" lon="-75.59969">
<ele>62.3</ele>
<time>2025-10-03T00:15:01.314Z</time>
</trkpt>
<trkpt lat="45.44522" lon="-75.599504">
<ele>62</ele>
<time>2025-10-03T00:15:02.312Z</time>
</trkpt>
<trkpt lat="45.445259" lon="-75.59932">
<ele>61.5</ele>
<time>2025-10-03T00:15:03.313Z</time>
</trkpt>
<trkpt lat="45.4453" lon="-75.599139">
<ele>60.9</ele>
<time>2025-10-03T00:15:04.313Z</time>
</trkpt>
<trkpt lat="45.445344" lon="-75.598964">
<ele>60.4</ele>
<time>2025-10-03T00:15:05.314Z</time>
</trkpt>
<trkpt lat="45.445389" lon="-75.598794">
<ele>60.1</ele>
<time>2025-10-03T00:15:06.312Z</time>
</trkpt>
<trkpt lat="45.445436" lon="-75.598625">
<ele>59.6</ele>
<time>2025-10-03T00:15:07.313Z</time>
</trkpt>
<trkpt lat="45.445486" lon="-75.598456">
<ele>58.9</ele>
<time>2025-10-03T00:15:08.314Z</time>
</trkpt>
<trkpt lat="45.445539" lon="-75.59829">
<ele>58.2</ele>
<time>2025-10-03T00:15:09.314Z</time>
</trkpt>
<trkpt lat="45.445595" lon="-75.598127">
<ele>58</ele>
<time>2025-10-03T00:15:10.313Z</time>
</trkpt>
<trkpt lat="45.445653" lon="-75.597968">
<ele>57.4</ele>
<time>2025-10-03T00:15:11.314Z</time>
</trkpt>
<trkpt lat="45.445711" lon="-75.597811">
<ele>57</ele>
<time>2025-10-03T00:15:12.313Z</time>
</trkpt>
<trkpt lat="45.445772" lon="-75.597656">
<ele>56.4</ele>
<time>2025-10-03T00:15:13.313Z</time>
</trkpt>
<trkpt lat="45.445835" lon="-75.597504">
<ele>56</ele>
<time>2025-10-03T00:15:14.313Z</time>
</trkpt>
<trkpt lat="45.445901" lon="-75.597353">
<ele>55.7</ele>
<time>2025-10-03T00:15:15.314Z</time>
</trkpt>
<trkpt lat="45.445971" lon="-75.597201">
<ele>55.1</ele>
<time>2025-10-03T00:15:16.314Z</time>
</trkpt>
<trkpt lat="45.446044" lon="-75.597048">
<ele>54.8</ele>
<time>2025-10-03T00:15:17.314Z</time>
</trkpt>
<trkpt lat="45.446113" lon="-75.596892">
<ele>54.1</ele>
<time>2025-10-03T00:15:18.314Z</time>
</trkpt>
<trkpt lat="45.44618" lon="-75.596739">
<ele>53.7</ele>
<time>2025-10-03T00:15:19.314Z</time>
</trkpt>
<trkpt lat="45.446248" lon="-75.596588">
<ele>53.5</ele>
<time>2025-10-03T00:15:20.314Z</time>
</trkpt>
<trkpt lat="45.446313" lon="-75.596439">
<ele>53.1</ele>
<time>2025-10-03T00:15:21.313Z</time>
</trkpt>
<trkpt lat="45.446379" lon="-75.596292">
<ele>52.6</ele>
<time>2025-10-03T00:15:22.313Z</time>
</trkpt>
<trkpt lat="45.446445" lon="-75.596146">
<ele>52.1</ele>
<time>2025-10-03T00:15:23.314Z</time>
</trkpt>
<trkpt lat="45.44651" lon="-75.596">
<ele>51.5</ele>
<time>2025-10-03T00:15:24.313Z</time>
</trkpt>
<trkpt lat="45.446574" lon="-75.595855">
<ele>51.1</ele>
<time>2025-10-03T00:15:25.314Z</time>
</trkpt>
<trkpt lat="45.446636" lon="-75.595712">
<ele>50.5</ele>
<time>2025-10-03T00:15:26.314Z</time>
</trkpt>
<trkpt lat="45.446697" lon="-75.595574">
<ele>50</ele>
<time>2025-10-03T00:15:27.314Z</time>
</trkpt>
<trkpt lat="45.446756" lon="-75.595441">
<ele>49.5</ele>
<time>2025-10-03T00:15:28.314Z</time>
</trkpt>
<trkpt lat="45.446808" lon="-75.595319">
<ele>48.9</ele>
<time>2025-10-03T00:15:29.314Z</time>
</trkpt>
<trkpt lat="45.446855" lon="-75.595209">
<ele>48.5</ele>
<time>2025-10-03T00:15:30.314Z</time>
</trkpt>
<trkpt lat="45.4469" lon="-75.595108">
<ele>48</ele>
<time>2025-10-03T00:15:31.313Z</time>
</trkpt>
<trkpt lat="45.446943" lon="-75.595012">
<ele>47.5</ele>
<time>2025-10-03T00:15:32.314Z</time>
</trkpt>
<trkpt lat="45.446984" lon="-75.59492">
<ele>46.7</ele>
<time>2025-10-03T00:15:33.314Z</time>
</trkpt>
<trkpt lat="45.447019" lon="-75.594831">
<ele>46.3</ele>
<time>2025-10-03T00:15:34.314Z</time>
</trkpt>
<trkpt lat="45.447052" lon="-75.594751">
<ele>46</ele>
<time>2025-10-03T00:15:35.314Z</time>
</trkpt>
<trkpt lat="45.447087" lon="-75.594691">
<ele>45.8</ele>
<time>2025-10-03T00:15:36.313Z</time>
</trkpt>
<trkpt lat="45.447116" lon="-75.594631">
<ele>45.4</ele>
<time>2025-10-03T00:15:37.314Z</time>
</trkpt>
<trkpt lat="45.447142" lon="-75.594578">
<ele>45.2</ele>
<time>2025-10-03T00:15:38.314Z</time>
</trkpt>
<trkpt lat="45.447166" lon="-75.594532">
<ele>45</ele>
<time>2025-10-03T00:15:39.314Z</time>
</trkpt>
<trkpt lat="45.447166" lon="-75.594532">
<ele>44.8</ele>
<time>2025-10-03T00:15:40.306Z</time>
</trkpt>
<trkpt lat="45.447198" lon="-75.594467">
<ele>44.6</ele>
<time>2025-10-03T00:15:41.314Z</time>
</trkpt>
<trkpt lat="45.447209" lon="-75.594447">
<ele>44.5</ele>
<time>2025-10-03T00:15:42.314Z</time>
</trkpt>
<trkpt lat="45.447217" lon="-75.594431">
<ele>44.3</ele>
<time>2025-10-03T00:15:43.314Z</time>
</trkpt>
<trkpt lat="45.447222" lon="-75.594424">
<ele>44.2</ele>
<time>2025-10-03T00:15:44.314Z</time>
</trkpt>
<trkpt lat="45.447221" lon="-75.594424">
<ele>44.1</ele>
<time>2025-10-03T00:15:45.314Z</time>
</trkpt>
<trkpt lat="45.44722" lon="-75.594427">
<ele>44.1</ele>
<time>2025-10-03T00:15:46.314Z</time>
</trkpt>
<trkpt lat="45.447219" lon="-75.594429">
<ele>44.1</ele>
<time>2025-10-03T00:15:47.313Z</time>
</trkpt>
<trkpt lat="45.447219" lon="-75.594432">
<ele>44</ele>
<time>2025-10-03T00:15:48.313Z</time>
</trkpt>
<trkpt lat="45.44722" lon="-75.594431">
<ele>44</ele>
<time>2025-10-03T00:15:49.314Z</time>
</trkpt>
<trkpt lat="45.44722" lon="-75.594431">
<ele>44</ele>
<time>2025-10-03T00:15:50.313Z</time>
</trkpt>
<trkpt lat="45.447221" lon="-75.594431">
<ele>44</ele>
<time>2025-10-03T00:15:51.313Z</time>
</trkpt>
<trkpt lat="45.447221" lon="-75.594431">
<ele>44</ele>
<time>2025-10-03T00:15:52.314Z</time>
</trkpt>
<trkpt lat="45.447221" lon="-75.594431">
<ele>44</ele>
<time>2025-10-03T00:15:53.314Z</time>
</trkpt>
<trkpt lat="45.447221" lon="-75.594431">
<ele>43.4</ele>
<time>2025-10-03T00:15:54.314Z</time>
</trkpt>
<trkpt lat="45.447221" lon="-75.594431">
<ele>43.4</ele>
<time>2025-10-03T00:15:55.313Z</time>
</trkpt>
<trkpt lat="45.447221" lon="-75.594431">
<ele>43.4</ele>
<time>2025-10-03T00:15:56.314Z</time>
</trkpt>
<trkpt lat="45.447221" lon="-75.594431">
<ele>43.4</ele>
<time>2025-10-03T00:15:57.313Z</time>
</trkpt>
<trkpt lat="45.447221" lon="-75.594431">
<ele>43.4</ele>
<time>2025-10-03T00:15:58.314Z</time>
</trkpt>
<trkpt lat="45.447221" lon="-75.594431">
<ele>43.4</ele>
<time>2025-10-03T00:15:59.313Z</time>
</trkpt>
<trkpt lat="45.447221" lon="-75.594431">
<ele>43.4</ele>
<time>2025-10-03T00:16:00.314Z</time>
</trkpt>
<trkpt lat="45.447223" lon="-75.594432">
<ele>43.4</ele>
<time>2025-10-03T00:16:01.314Z</time>
</trkpt>
<trkpt lat="45.447223" lon="-75.594432">
<ele>43.4</ele>
<time>2025-10-03T00:16:02.314Z</time>
</trkpt>
<trkpt lat="45.447223" lon="-75.594431">
<ele>43.4</ele>
<time>2025-10-03T00:16:03.313Z</time>
</trkpt>
<trkpt lat="45.447224" lon="-75.594432">
<ele>43.4</ele>
<time>2025-10-03T00:16:04.314Z</time>
</trkpt>
<trkpt lat="45.447224" lon="-75.594431">
<ele>43.4</ele>
<time>2025-10-03T00:16:05.314Z</time>
</trkpt>
<trkpt lat="45.447233" lon="-75.594408">
<ele>43.4</ele>
<time>2025-10-03T00:16:06.314Z</time>
</trkpt>
<trkpt lat="45.447256" lon="-75.594356">
<ele>43.4</ele>
<time>2025-10-03T00:16:07.315Z</time>
</trkpt>
<trkpt lat="45.447289" lon="-75.594276">
<ele>43.4</ele>
<time>2025-10-03T00:16:08.313Z</time>
</trkpt>
<trkpt lat="45.447333" lon="-75.594171">
<ele>43.4</ele>
<time>2025-10-03T00:16:09.313Z</time>
</trkpt>
<trkpt lat="45.447385" lon="-75.594044">
<ele>43.4</ele>
<time>2025-10-03T00:16:10.314Z</time>
</trkpt>
<trkpt lat="45.447447" lon="-75.593901">
<ele>43.4</ele>
<time>2025-10-03T00:16:11.315Z</time>
</trkpt>
<trkpt lat="45.447515" lon="-75.593745">
<ele>43.4</ele>
<time>2025-10-03T00:16:12.314Z</time>
</trkpt>
<trkpt lat="45.447588" lon="-75.593579">
<ele>43.4</ele>
<time>2025-10-03T00:16:13.313Z</time>
</trkpt>
<trkpt lat="45.447663" lon="-75.593409">
<ele>45.1</ele>
<time>2025-10-03T00:16:14.314Z</time>
</trkpt>
<trkpt lat="45.447739" lon="-75.593238">
<ele>45.4</ele>
<time>2025-10-03T00:16:15.315Z</time>
</trkpt>
<trkpt lat="45.447815" lon="-75.593063">
<ele>45.5</ele>
<time>2025-10-03T00:16:16.314Z</time>
</trkpt>
<trkpt lat="45.447891" lon="-75.59289">
<ele>45.6</ele>
<time>2025-10-03T00:16:17.313Z</time>
</trkpt>
<trkpt lat="45.447969" lon="-75.592713">
<ele>45.6</ele>
<time>2025-10-03T00:16:18.314Z</time>
</trkpt>
<trkpt lat="45.448047" lon="-75.592532">
<ele>45.6</ele>
<time>2025-10-03T00:16:19.314Z</time>
</trkpt>
<trkpt lat="45.448126" lon="-75.59235">
<ele>45.6</ele>
<time>2025-10-03T00:16:20.315Z</time>
</trkpt>
<trkpt lat="45.448208" lon="-75.592165">
<ele>45.6</ele>
<time>2025-10-03T00:16:21.315Z</time>
</trkpt>
<trkpt lat="45.448291" lon="-75.591979">
<ele>45.6</ele>
<time>2025-10-03T00:16:22.316Z</time>
</trkpt>
<trkpt lat="45.448374" lon="-75.591794">
<ele>45.6</ele>
<time>2025-10-03T00:16:23.314Z</time>
</trkpt>
<trkpt lat="45.448456" lon="-75.59161">
<ele>45.5</ele>
<time>2025-10-03T00:16:24.314Z</time>
</trkpt>
<trkpt lat="45.448537" lon="-75.591422">
<ele>45.4</ele>
<time>2025-10-03T00:16:25.315Z</time>
</trkpt>
<trkpt lat="45.448618" lon="-75.591233">
<ele>45.3</ele>
<time>2025-10-03T00:16:26.314Z</time>
</trkpt>
<trkpt lat="45.448703" lon="-75.591039">
<ele>43.4</ele>
<time>2025-10-03T00:16:27.314Z</time>
</trkpt>
<trkpt lat="45.448789" lon="-75.590841">
<ele>43.4</ele>
<time>2025-10-03T00:16:28.313Z</time>
</trkpt>
<trkpt lat="45.448875" lon="-75.590645">
<ele>43.4</ele>
<time>2025-10-03T00:16:29.315Z</time>
</trkpt>
<trkpt lat="45.448957" lon="-75.590455">
<ele>43.4</ele>
<time>2025-10-03T00:16:30.315Z</time>
</trkpt>
<trkpt lat="45.449037" lon="-75.590271">
<ele>43.4</ele>
<time>2025-10-03T00:16:31.315Z</time>
</trkpt>
<trkpt lat="45.449114" lon="-75.590093">
<ele>43.4</ele>
<time>2025-10-03T00:16:32.315Z</time>
</trkpt>
<trkpt lat="45.449186" lon="-75.589924">
<ele>43.4</ele>
<time>2025-10-03T00:16:33.315Z</time>
</trkpt>
<trkpt lat="45.449254" lon="-75.589765">
<ele>43.4</ele>
<time>2025-10-03T00:16:34.314Z</time>
</trkpt>
<trkpt lat="45.449316" lon="-75.589615">
<ele>43.4</ele>
<time>2025-10-03T00:16:35.315Z</time>
</trkpt>
<trkpt lat="45.449371" lon="-75.589471">
<ele>43.4</ele>
<time>2025-10-03T00:16:36.315Z</time>
</trkpt>
<trkpt lat="45.449423" lon="-75.589334">
<ele>43.4</ele>
<time>2025-10-03T00:16:37.315Z</time>
</trkpt>
<trkpt lat="45.449472" lon="-75.589208">
<ele>41.7</ele>
<time>2025-10-03T00:16:38.315Z</time>
</trkpt>
<trkpt lat="45.449518" lon="-75.589093">
<ele>41.2</ele>
<time>2025-10-03T00:16:39.315Z</time>
</trkpt>
<trkpt lat="45.449564" lon="-75.588989">
<ele>40.9</ele>
<time>2025-10-03T00:16:40.314Z</time>
</trkpt>
<trkpt lat="45.449605" lon="-75.588895">
<ele>41.7</ele>
<time>2025-10-03T00:16:41.315Z</time>
</trkpt>
<trkpt lat="45.449642" lon="-75.588811">
<ele>41.7</ele>
<time>2025-10-03T00:16:42.315Z</time>
</trkpt>
<trkpt lat="45.449674" lon="-75.588737">
<ele>39.8</ele>
<time>2025-10-03T00:16:43.315Z</time>
</trkpt>
<trkpt lat="45.4497" lon="-75.588673">
<ele>39.5</ele>
<time>2025-10-03T00:16:44.314Z</time>
</trkpt>
<trkpt lat="45.449723" lon="-75.588617">
<ele>39.3</ele>
<time>2025-10-03T00:16:45.315Z</time>
</trkpt>
<trkpt lat="45.449742" lon="-75.58857">
<ele>39.1</ele>
<time>2025-10-03T00:16:46.315Z</time>
</trkpt>
<trkpt lat="45.449742" lon="-75.58857">
<ele>38.9</ele>
<time>2025-10-03T00:16:47.312Z</time>
</trkpt>
<trkpt lat="45.449766" lon="-75.588511">
<ele>38.7</ele>
<time>2025-10-03T00:16:48.315Z</time>
</trkpt>
<trkpt lat="45.44977" lon="-75.588498">
<ele>38.6</ele>
<time>2025-10-03T00:16:49.315Z</time>
</trkpt>
<trkpt lat="45.449769" lon="-75.588502">
<ele>38.3</ele>
<time>2025-10-03T00:16:50.315Z</time>
</trkpt>
<trkpt lat="45.44977" lon="-75.58851">
<ele>38.2</ele>
<time>2025-10-03T00:16:51.315Z</time>
</trkpt>
<trkpt lat="45.44977" lon="-75.588516">
<ele>38.2</ele>
<time>2025-10-03T00:16:52.315Z</time>
</trkpt>
<trkpt lat="45.449771" lon="-75.588522">
<ele>38.2</ele>
<time>2025-10-03T00:16:53.315Z</time>
</trkpt>
<trkpt lat="45.449772" lon="-75.58852">
<ele>38.2</ele>
<time>2025-10-03T00:16:54.315Z</time>
</trkpt>
<trkpt lat="45.449772" lon="-75.588519">
<ele>38.1</ele>
<time>2025-10-03T00:16:55.315Z</time>
</trkpt>
<trkpt lat="45.449772" lon="-75.588519">
<ele>38.1</ele>
<time>2025-10-03T00:16:56.314Z</time>
</trkpt>
<trkpt lat="45.449772" lon="-75.588519">
<ele>38.1</ele>
<time>2025-10-03T00:16:57.315Z</time>
</trkpt>
<trkpt lat="45.449772" lon="-75.588519">
<ele>38.1</ele>
<time>2025-10-03T00:16:58.315Z</time>
</trkpt>
<trkpt lat="45.449772" lon="-75.588519">
<ele>38.1</ele>
<time>2025-10-03T00:16:59.315Z</time>
</trkpt>
<trkpt lat="45.449772" lon="-75.588519">
<ele>38.1</ele>
<time>2025-10-03T00:17:00.314Z</time>
</trkpt>
<trkpt lat="45.449772" lon="-75.588519">
<ele>38.1</ele>
<time>2025-10-03T00:17:01.314Z</time>
</trkpt>
<trkpt lat="45.449772" lon="-75.588519">
<ele>38.1</ele>
<time>2025-10-03T00:17:02.315Z</time>
</trkpt>
<trkpt lat="45.449772" lon="-75.588519">
<ele>38.1</ele>
<time>2025-10-03T00:17:03.314Z</time>
</trkpt>
<trkpt lat="45.449772" lon="-75.588519">
<ele>38.1</ele>
<time>2025-10-03T00:17:04.315Z</time>
</trkpt>
<trkpt lat="45.449772" lon="-75.588519">
<ele>38.1</ele>
<time>2025-10-03T00:17:05.315Z</time>
</trkpt>
<trkpt lat="45.449772" lon="-75.588529">
<ele>38.1</ele>
<time>2025-10-03T00:17:06.315Z</time>
</trkpt>
<trkpt lat="45.449778" lon="-75.588511">
<ele>37.9</ele>
<time>2025-10-03T00:17:07.315Z</time>
</trkpt>
<trkpt lat="45.44979" lon="-75.588476">
<ele>37.9</ele>
<time>2025-10-03T00:17:08.314Z</time>
</trkpt>
<trkpt lat="45.449812" lon="-75.58842">
<ele>37.9</ele>
<time>2025-10-03T00:17:09.314Z</time>
</trkpt>
<trkpt lat="45.449838" lon="-75.588346">
<ele>37.9</ele>
<time>2025-10-03T00:17:10.315Z</time>
</trkpt>
<trkpt lat="45.449871" lon="-75.588254">
<ele>37.9</ele>
<time>2025-10-03T00:17:11.315Z</time>
</trkpt>
<trkpt lat="45.449907" lon="-75.588146">
<ele>37.9</ele>
<time>2025-10-03T00:17:12.314Z</time>
</trkpt>
<trkpt lat="45.449948" lon="-75.588026">
<ele>37.9</ele>
<time>2025-10-03T00:17:13.315Z</time>
</trkpt>
<trkpt lat="45.449992" lon="-75.587896">
<ele>37.9</ele>
<time>2025-10-03T00:17:14.315Z</time>
</trkpt>
<trkpt lat="45.450035" lon="-75.587764">
<ele>37.9</ele>
<time>2025-10-03T00:17:15.315Z</time>
</trkpt>
<trkpt lat="45.45008" lon="-75.587628">
<ele>37.9</ele>
<time>2025-10-03T00:17:16.315Z</time>
</trkpt>
<trkpt lat="45.450126" lon="-75.587484">
<ele>37.9</ele>
<time>2025-10-03T00:17:17.316Z</time>
</trkpt>
<trkpt lat="45.450174" lon="-75.587334">
<ele>37.9</ele>
<time>2025-10-03T00:17:18.315Z</time>
</trkpt>
<trkpt lat="45.450225" lon="-75.587177">
<ele>37.9</ele>
<time>2025-10-03T00:17:19.314Z</time>
</trkpt>
<trkpt lat="45.450278" lon="-75.587013">
<ele>37.9</ele>
<time>2025-10-03T00:17:20.315Z</time>
</trkpt>
<trkpt lat="45.450334" lon="-75.586842">
<ele>37.9</ele>
<time>2025-10-03T00:17:21.314Z</time>
</trkpt>
<trkpt lat="45.450394" lon="-75.586665">
<ele>37.9</ele>
<time>2025-10-03T00:17:22.314Z</time>
</trkpt>
<trkpt lat="45.450456" lon="-75.586478">
<ele>37.9</ele>
<time>2025-10-03T00:17:23.315Z</time>
</trkpt>
<trkpt lat="45.450524" lon="-75.586284">
<ele>37.9</ele>
<time>2025-10-03T00:17:24.315Z</time>
</trkpt>
<trkpt lat="45.450592" lon="-75.586084">
<ele>37.9</ele>
<time>2025-10-03T00:17:25.315Z</time>
</trkpt>
<trkpt lat="45.450658" lon="-75.585876">
<ele>37.9</ele>
<time>2025-10-03T00:17:26.315Z</time>
</trkpt>
<trkpt lat="45.450728" lon="-75.585657">
<ele>37.9</ele>
<time>2025-10-03T00:17:27.315Z</time>
</trkpt>
<trkpt lat="45.450797" lon="-75.585434">
<ele>34</ele>
<time>2025-10-03T00:17:28.315Z</time>
</trkpt>
<trkpt lat="45.450862" lon="-75.585214">
<ele>34</ele>
<time>2025-10-03T00:17:29.314Z</time>
</trkpt>
<trkpt lat="45.450925" lon="-75.585001">
<ele>34</ele>
<time>2025-10-03T00:17:30.315Z</time>
</trkpt>
<trkpt lat="45.450989" lon="-75.58479">
<ele>34</ele>
<time>2025-10-03T00:17:31.315Z</time>
</trkpt>
<trkpt lat="45.451052" lon="-75.584591">
<ele>34</ele>
<time>2025-10-03T00:17:32.316Z</time>
</trkpt>
<trkpt lat="45.451116" lon="-75.584396">
<ele>32</ele>
<time>2025-10-03T00:17:33.316Z</time>
</trkpt>
<trkpt lat="45.451179" lon="-75.584203">
<ele>31.6</ele>
<time>2025-10-03T00:17:34.314Z</time>
</trkpt>
<trkpt lat="45.451238" lon="-75.584017">
<ele>31.3</ele>
<time>2025-10-03T00:17:35.315Z</time>
</trkpt>
<trkpt lat="45.451291" lon="-75.583844">
<ele>30.7</ele>
<time>2025-10-03T00:17:36.315Z</time>
</trkpt>
<trkpt lat="45.451388" lon="-75.583521">
<ele>30.3</ele>
<time>2025-10-03T00:17:38.316Z</time>
</trkpt>
<trkpt lat="45.451432" lon="-75.583363">
<ele>30</ele>
<time>2025-10-03T00:17:39.315Z</time>
</trkpt>
<trkpt lat="45.451471" lon="-75.583215">
<ele>29.5</ele>
<time>2025-10-03T00:17:40.315Z</time>
</trkpt>
<trkpt lat="45.451502" lon="-75.583089">
<ele>29.1</ele>
<time>2025-10-03T00:17:41.315Z</time>
</trkpt>
<trkpt lat="45.451528" lon="-75.582981">
<ele>28.8</ele>
<time>2025-10-03T00:17:42.315Z</time>
</trkpt>
<trkpt lat="45.451547" lon="-75.582882">
<ele>28.7</ele>
<time>2025-10-03T00:17:43.314Z</time>
</trkpt>
<trkpt lat="45.451547" lon="-75.582777">
<ele>28.4</ele>
<time>2025-10-03T00:17:44.315Z</time>
</trkpt>
<trkpt lat="45.451513" lon="-75.582675">
<ele>28.2</ele>
<time>2025-10-03T00:17:45.316Z</time>
</trkpt>
<trkpt lat="45.451445" lon="-75.582592">
<ele>28.2</ele>
<time>2025-10-03T00:17:46.314Z</time>
</trkpt>
<trkpt lat="45.451346" lon="-75.582522">
<ele>28.2</ele>
<time>2025-10-03T00:17:47.316Z</time>
</trkpt>
<trkpt lat="45.451228" lon="-75.582454">
<ele>28.2</ele>
<time>2025-10-03T00:17:48.316Z</time>
</trkpt>
<trkpt lat="45.451104" lon="-75.582392">
<ele>28.2</ele>
<time>2025-10-03T00:17:49.316Z</time>
</trkpt>
<trkpt lat="45.450978" lon="-75.582344">
<ele>28.5</ele>
<time>2025-10-03T00:17:50.315Z</time>
</trkpt>
<trkpt lat="45.45085" lon="-75.582326">
<ele>29.1</ele>
<time>2025-10-03T00:17:51.316Z</time>
</trkpt>
<trkpt lat="45.450727" lon="-75.582344">
<ele>29.6</ele>
<time>2025-10-03T00:17:52.316Z</time>
</trkpt>
<trkpt lat="45.450613" lon="-75.582413">
<ele>30.6</ele>
<time>2025-10-03T00:17:53.315Z</time>
</trkpt>
<trkpt lat="45.450518" lon="-75.582524">
<ele>31.1</ele>
<time>2025-10-03T00:17:54.315Z</time>
</trkpt>
<trkpt lat="45.450451" lon="-75.582671">
<ele>32</ele>
<time>2025-10-03T00:17:55.316Z</time>
</trkpt>
<trkpt lat="45.450418" lon="-75.582839">
<ele>34.1</ele>
<time>2025-10-03T00:17:56.316Z</time>
</trkpt>
<trkpt lat="45.450423" lon="-75.583009">
<ele>34.1</ele>
<time>2025-10-03T00:17:57.316Z</time>
</trkpt>
<trkpt lat="45.450461" lon="-75.583176">
<ele>34.1</ele>
<time>2025-10-03T00:17:58.316Z</time>
</trkpt>
<trkpt lat="45.450529" lon="-75.58332">
<ele>34.1</ele>
<time>2025-10-03T00:17:59.316Z</time>
</trkpt>
<trkpt lat="45.450622" lon="-75.583438">
<ele>34</ele>
<time>2025-10-03T00:18:00.315Z</time>
</trkpt>
<trkpt lat="45.450735" lon="-75.583519">
<ele>35.9</ele>
<time>2025-10-03T00:18:01.316Z</time>
</trkpt>
<trkpt lat="45.450862" lon="-75.583556">
<ele>37.9</ele>
<time>2025-10-03T00:18:02.316Z</time>
</trkpt>
<trkpt lat="45.450997" lon="-75.583542">
<ele>37.9</ele>
<time>2025-10-03T00:18:03.316Z</time>
</trkpt>
<trkpt lat="45.451147" lon="-75.583482">
<ele>37.9</ele>
<time>2025-10-03T00:18:04.316Z</time>
</trkpt>
<trkpt lat="45.451314" lon="-75.583394">
<ele>37.9</ele>
<time>2025-10-03T00:18:05.316Z</time>
</trkpt>
<trkpt lat="45.451504" lon="-75.58328">
<ele>37.9</ele>
<time>2025-10-03T00:18:06.315Z</time>
</trkpt>
<trkpt lat="45.451711" lon="-75.583148">
<ele>37.9</ele>
<time>2025-10-03T00:18:07.316Z</time>
</trkpt>
<trkpt lat="45.45193" lon="-75.583004">
<ele>37.9</ele>
<time>2025-10-03T00:18:08.316Z</time>
</trkpt>
<trkpt lat="45.452156" lon="-75.582853">
<ele>39.7</ele>
<time>2025-10-03T00:18:09.316Z</time>
</trkpt>
<trkpt lat="45.452389" lon="-75.582702">
<ele>40.6</ele>
<time>2025-10-03T00:18:10.316Z</time>
</trkpt>
<trkpt lat="45.452625" lon="-75.582548">
<ele>40.7</ele>
<time>2025-10-03T00:18:11.316Z</time>
</trkpt>
<trkpt lat="45.45286" lon="-75.582394">
<ele>40.8</ele>
<time>2025-10-03T00:18:12.316Z</time>
</trkpt>
<trkpt lat="45.453094" lon="-75.58224">
<ele>40.8</ele>
<time>2025-10-03T00:18:13.315Z</time>
</trkpt>
<trkpt lat="45.453326" lon="-75.582083">
<ele>40.8</ele>
<time>2025-10-03T00:18:14.315Z</time>
</trkpt>
<trkpt lat="45.453558" lon="-75.58192">
<ele>40.7</ele>
<time>2025-10-03T00:18:15.315Z</time>
</trkpt>
<trkpt lat="45.453787" lon="-75.581746">
<ele>40.5</ele>
<time>2025-10-03T00:18:16.316Z</time>
</trkpt>
<trkpt lat="45.45401" lon="-75.58156">
<ele>37.9</ele>
<time>2025-10-03T00:18:17.316Z</time>
</trkpt>
<trkpt lat="45.454228" lon="-75.581361">
<ele>37.9</ele>
<time>2025-10-03T00:18:18.316Z</time>
</trkpt>
<trkpt lat="45.454438" lon="-75.581151">
<ele>37.9</ele>
<time>2025-10-03T00:18:19.315Z</time>
</trkpt>
<trkpt lat="45.454642" lon="-75.58093">
<ele>37.9</ele>
<time>2025-10-03T00:18:20.315Z</time>
</trkpt>
<trkpt lat="45.454842" lon="-75.580696">
<ele>36.1</ele>
<time>2025-10-03T00:18:21.316Z</time>
</trkpt>
<trkpt lat="45.455042" lon="-75.580446">
<ele>34</ele>
<time>2025-10-03T00:18:22.316Z</time>
</trkpt>
<trkpt lat="45.455233" lon="-75.580183">
<ele>34</ele>
<time>2025-10-03T00:18:23.316Z</time>
</trkpt>
<trkpt lat="45.455416" lon="-75.579908">
<ele>31.8</ele>
<time>2025-10-03T00:18:24.316Z</time>
</trkpt>
<trkpt lat="45.455592" lon="-75.579624">
<ele>31.5</ele>
<time>2025-10-03T00:18:25.317Z</time>
</trkpt>
<trkpt lat="45.455764" lon="-75.57933">
<ele>31</ele>
<time>2025-10-03T00:18:26.316Z</time>
</trkpt>
<trkpt lat="45.455932" lon="-75.579026">
<ele>30.6</ele>
<time>2025-10-03T00:18:27.316Z</time>
</trkpt>
<trkpt lat="45.456093" lon="-75.578714">
<ele>30</ele>
<time>2025-10-03T00:18:28.316Z</time>
</trkpt>
<trkpt lat="45.456245" lon="-75.578393">
<ele>29</ele>
<time>2025-10-03T00:18:29.315Z</time>
</trkpt>
<trkpt lat="45.456387" lon="-75.578066">
<ele>29</ele>
<time>2025-10-03T00:18:30.316Z</time>
</trkpt>
<trkpt lat="45.456521" lon="-75.577735">
<ele>28.6</ele>
<time>2025-10-03T00:18:31.316Z</time>
</trkpt>
<trkpt lat="45.456652" lon="-75.577405">
<ele>28.5</ele>
<time>2025-10-03T00:18:32.316Z</time>
</trkpt>
<trkpt lat="45.456785" lon="-75.577079">
<ele>28.4</ele>
<time>2025-10-03T00:18:33.316Z</time>
</trkpt>
<trkpt lat="45.456921" lon="-75.576758">
<ele>28.2</ele>
<time>2025-10-03T00:18:34.316Z</time>
</trkpt>
<trkpt lat="45.457058" lon="-75.576436">
<ele>28.2</ele>
<time>2025-10-03T00:18:35.316Z</time>
</trkpt>
<trkpt lat="45.457195" lon="-75.576112">
<ele>28.2</ele>
<time>2025-10-03T00:18:36.316Z</time>
</trkpt>
<trkpt lat="45.457332" lon="-75.575788">
<ele>28.3</ele>
<time>2025-10-03T00:18:37.316Z</time>
</trkpt>
<trkpt lat="45.457469" lon="-75.575463">
<ele>28.4</ele>
<time>2025-10-03T00:18:38.316Z</time>
</trkpt>
<trkpt lat="45.457605" lon="-75.575137">
<ele>28.5</ele>
<time>2025-10-03T00:18:39.316Z</time>
</trkpt>
<trkpt lat="45.457739" lon="-75.57481">
<ele>28.5</ele>
<time>2025-10-03T00:18:40.315Z</time>
</trkpt>
<trkpt lat="45.457871" lon="-75.574484">
<ele>28.7</ele>
<time>2025-10-03T00:18:41.317Z</time>
</trkpt>
<trkpt lat="45.458" lon="-75.574158">
<ele>28.9</ele>
<time>2025-10-03T00:18:42.316Z</time>
</trkpt>
<trkpt lat="45.458126" lon="-75.573836">
<ele>29</ele>
<time>2025-10-03T00:18:43.316Z</time>
</trkpt>
<trkpt lat="45.458251" lon="-75.573518">
<ele>29.1</ele>
<time>2025-10-03T00:18:44.315Z</time>
</trkpt>
<trkpt lat="45.458373" lon="-75.573209">
<ele>29.2</ele>
<time>2025-10-03T00:18:45.315Z</time>
</trkpt>
<trkpt lat="45.458494" lon="-75.572904">
<ele>29.3</ele>
<time>2025-10-03T00:18:46.315Z</time>
</trkpt>
<trkpt lat="45.458616" lon="-75.5726">
<ele>29.4</ele>
<time>2025-10-03T00:18:47.316Z</time>
</trkpt>
<trkpt lat="45.458736" lon="-75.572294">
<ele>29.5</ele>
<time>2025-10-03T00:18:48.317Z</time>
</trkpt>
<trkpt lat="45.458858" lon="-75.571988">
<ele>29.6</ele>
<time>2025-10-03T00:18:49.315Z</time>
</trkpt>
<trkpt lat="45.458976" lon="-75.571685">
<ele>29.7</ele>
<time>2025-10-03T00:18:50.317Z</time>
</trkpt>
<trkpt lat="45.459093" lon="-75.571384">
<ele>30.1</ele>
<time>2025-10-03T00:18:51.317Z</time>
</trkpt>
<trkpt lat="45.459206" lon="-75.571088">
<ele>30.3</ele>
<time>2025-10-03T00:18:52.316Z</time>
</trkpt>
<trkpt lat="45.459317" lon="-75.570796">
<ele>30.5</ele>
<time>2025-10-03T00:18:53.317Z</time>
</trkpt>
<trkpt lat="45.459431" lon="-75.570502">
<ele>30.6</ele>
<time>2025-10-03T00:18:54.317Z</time>
</trkpt>
<trkpt lat="45.459546" lon="-75.570207">
<ele>30.7</ele>
<time>2025-10-03T00:18:55.316Z</time>
</trkpt>
<trkpt lat="45.459659" lon="-75.569913">
<ele>30.7</ele>
<time>2025-10-03T00:18:56.316Z</time>
</trkpt>
<trkpt lat="45.459771" lon="-75.569622">
<ele>30.7</ele>
<time>2025-10-03T00:18:57.317Z</time>
</trkpt>
<trkpt lat="45.459881" lon="-75.56934">
<ele>30.7</ele>
<time>2025-10-03T00:18:58.316Z</time>
</trkpt>
<trkpt lat="45.45999" lon="-75.569058">
<ele>30.7</ele>
<time>2025-10-03T00:18:59.317Z</time>
</trkpt>
<trkpt lat="45.460099" lon="-75.568772">
<ele>30.7</ele>
<time>2025-10-03T00:19:00.317Z</time>
</trkpt>
<trkpt lat="45.460209" lon="-75.568483">
<ele>30.7</ele>
<time>2025-10-03T00:19:01.317Z</time>
</trkpt>
<trkpt lat="45.460322" lon="-75.568192">
<ele>30.7</ele>
<time>2025-10-03T00:19:02.317Z</time>
</trkpt>
<trkpt lat="45.460436" lon="-75.567904">
<ele>30.6</ele>
<time>2025-10-03T00:19:03.317Z</time>
</trkpt>
<trkpt lat="45.460548" lon="-75.567621">
<ele>30.5</ele>
<time>2025-10-03T00:19:04.317Z</time>
</trkpt>
<trkpt lat="45.460661" lon="-75.567343">
<ele>30.4</ele>
<time>2025-10-03T00:19:05.317Z</time>
</trkpt>
<trkpt lat="45.460776" lon="-75.567063">
<ele>30.4</ele>
<time>2025-10-03T00:19:06.316Z</time>
</trkpt>
<trkpt lat="45.460892" lon="-75.566778">
<ele>30.3</ele>
<time>2025-10-03T00:19:07.317Z</time>
</trkpt>
<trkpt lat="45.461008" lon="-75.566483">
<ele>30.3</ele>
<time>2025-10-03T00:19:08.317Z</time>
</trkpt>
<trkpt lat="45.461123" lon="-75.566178">
<ele>30.4</ele>
<time>2025-10-03T00:19:09.317Z</time>
</trkpt>
<trkpt lat="45.461244" lon="-75.565866">
<ele>30.4</ele>
<time>2025-10-03T00:19:10.317Z</time>
</trkpt>
<trkpt lat="45.461372" lon="-75.565552">
<ele>30.4</ele>
<time>2025-10-03T00:19:11.317Z</time>
</trkpt>
<trkpt lat="45.461504" lon="-75.565232">
<ele>30.4</ele>
<time>2025-10-03T00:19:12.317Z</time>
</trkpt>
<trkpt lat="45.461636" lon="-75.564905">
<ele>30.5</ele>
<time>2025-10-03T00:19:13.316Z</time>
</trkpt>
<trkpt lat="45.461766" lon="-75.564572">
<ele>30.9</ele>
<time>2025-10-03T00:19:14.317Z</time>
</trkpt>
<trkpt lat="45.461894" lon="-75.564234">
<ele>31.4</ele>
<time>2025-10-03T00:19:15.317Z</time>
</trkpt>
<trkpt lat="45.462023" lon="-75.563894">
<ele>31.6</ele>
<time>2025-10-03T00:19:16.316Z</time>
</trkpt>
<trkpt lat="45.462152" lon="-75.563555">
<ele>31.9</ele>
<time>2025-10-03T00:19:17.317Z</time>
</trkpt>
<trkpt lat="45.462278" lon="-75.563221">
<ele>32.1</ele>
<time>2025-10-03T00:19:18.317Z</time>
</trkpt>
<trkpt lat="45.462404" lon="-75.562896">
<ele>32.4</ele>
<time>2025-10-03T00:19:19.317Z</time>
</trkpt>
<trkpt lat="45.462528" lon="-75.562577">
<ele>32.6</ele>
<time>2025-10-03T00:19:20.317Z</time>
</trkpt>
<trkpt lat="45.462656" lon="-75.562253">
<ele>32.7</ele>
<time>2025-10-03T00:19:21.317Z</time>
</trkpt>
<trkpt lat="45.462787" lon="-75.56192">
<ele>32.9</ele>
<time>2025-10-03T00:19:22.316Z</time>
</trkpt>
<trkpt lat="45.462926" lon="-75.561574">
<ele>33</ele>
<time>2025-10-03T00:19:23.317Z</time>
</trkpt>
<trkpt lat="45.463066" lon="-75.561214">
<ele>33.3</ele>
<time>2025-10-03T00:19:24.317Z</time>
</trkpt>
<trkpt lat="45.463209" lon="-75.560843">
<ele>33.4</ele>
<time>2025-10-03T00:19:25.317Z</time>
</trkpt>
<trkpt lat="45.463353" lon="-75.560473">
<ele>33.3</ele>
<time>2025-10-03T00:19:26.317Z</time>
</trkpt>
<trkpt lat="45.463495" lon="-75.56011">
<ele>33.8</ele>
<time>2025-10-03T00:19:27.317Z</time>
</trkpt>
<trkpt lat="45.463634" lon="-75.559754">
<ele>34.7</ele>
<time>2025-10-03T00:19:28.317Z</time>
</trkpt>
<trkpt lat="45.463771" lon="-75.5594">
<ele>35.4</ele>
<time>2025-10-03T00:19:29.317Z</time>
</trkpt>
<trkpt lat="45.463907" lon="-75.559044">
<ele>35.6</ele>
<time>2025-10-03T00:19:30.316Z</time>
</trkpt>
<trkpt lat="45.464044" lon="-75.558689">
<ele>35.8</ele>
<time>2025-10-03T00:19:31.316Z</time>
</trkpt>
<trkpt lat="45.464182" lon="-75.558337">
<ele>35.8</ele>
<time>2025-10-03T00:19:32.317Z</time>
</trkpt>
<trkpt lat="45.464319" lon="-75.55799">
<ele>35.9</ele>
<time>2025-10-03T00:19:33.317Z</time>
</trkpt>
<trkpt lat="45.464458" lon="-75.557641">
<ele>36</ele>
<time>2025-10-03T00:19:34.317Z</time>
</trkpt>
<trkpt lat="45.464604" lon="-75.557288">
<ele>36.1</ele>
<time>2025-10-03T00:19:35.317Z</time>
</trkpt>
<trkpt lat="45.464746" lon="-75.556936">
<ele>36.3</ele>
<time>2025-10-03T00:19:36.317Z</time>
</trkpt>
<trkpt lat="45.464885" lon="-75.556584">
<ele>36.6</ele>
<time>2025-10-03T00:19:37.317Z</time>
</trkpt>
<trkpt lat="45.465021" lon="-75.556232">
<ele>36.8</ele>
<time>2025-10-03T00:19:38.317Z</time>
</trkpt>
<trkpt lat="45.465157" lon="-75.555881">
<ele>36.9</ele>
<time>2025-10-03T00:19:39.317Z</time>
</trkpt>
<trkpt lat="45.465289" lon="-75.555531">
<ele>37</ele>
<time>2025-10-03T00:19:40.316Z</time>
</trkpt>
<trkpt lat="45.465419" lon="-75.555184">
<ele>36.9</ele>
<time>2025-10-03T00:19:41.316Z</time>
</trkpt>
<trkpt lat="45.465543" lon="-75.554842">
<ele>37</ele>
<time>2025-10-03T00:19:42.317Z</time>
</trkpt>
<trkpt lat="45.465667" lon="-75.554508">
<ele>37</ele>
<time>2025-10-03T00:19:43.317Z</time>
</trkpt>
<trkpt lat="45.465788" lon="-75.554177">
<ele>36.9</ele>
<time>2025-10-03T00:19:44.316Z</time>
</trkpt>
<trkpt lat="45.465904" lon="-75.553846">
<ele>36.9</ele>
<time>2025-10-03T00:19:45.317Z</time>
</trkpt>
<trkpt lat="45.466018" lon="-75.553516">
<ele>37</ele>
<time>2025-10-03T00:19:46.316Z</time>
</trkpt>
<trkpt lat="45.466132" lon="-75.553187">
<ele>36.9</ele>
<time>2025-10-03T00:19:47.316Z</time>
</trkpt>
<trkpt lat="45.466245" lon="-75.552863">
<ele>36.8</ele>
<time>2025-10-03T00:19:48.317Z</time>
</trkpt>
<trkpt lat="45.46636" lon="-75.552544">
<ele>36.6</ele>
<time>2025-10-03T00:19:49.317Z</time>
</trkpt>
<trkpt lat="45.466473" lon="-75.552228">
<ele>36.7</ele>
<time>2025-10-03T00:19:50.317Z</time>
</trkpt>
<trkpt lat="45.466584" lon="-75.551914">
<ele>36.6</ele>
<time>2025-10-03T00:19:51.317Z</time>
</trkpt>
<trkpt lat="45.466692" lon="-75.551605">
<ele>36.5</ele>
<time>2025-10-03T00:19:52.317Z</time>
</trkpt>
<trkpt lat="45.466802" lon="-75.551296">
<ele>36.5</ele>
<time>2025-10-03T00:19:53.317Z</time>
</trkpt>
<trkpt lat="45.466911" lon="-75.550991">
<ele>36.5</ele>
<time>2025-10-03T00:19:54.316Z</time>
</trkpt>
<trkpt lat="45.46702" lon="-75.550688">
<ele>36.4</ele>
<time>2025-10-03T00:19:55.318Z</time>
</trkpt>
<trkpt lat="45.467124" lon="-75.55039">
<ele>36.3</ele>
<time>2025-10-03T00:19:56.316Z</time>
</trkpt>
<trkpt lat="45.46722" lon="-75.550107">
<ele>36.3</ele>
<time>2025-10-03T00:19:57.316Z</time>
</trkpt>
<trkpt lat="45.467309" lon="-75.549838">
<ele>36.2</ele>
<time>2025-10-03T00:19:58.317Z</time>
</trkpt>
<trkpt lat="45.467392" lon="-75.54958">
<ele>36.1</ele>
<time>2025-10-03T00:19:59.318Z</time>
</trkpt>
<trkpt lat="45.467471" lon="-75.549326">
<ele>36</ele>
<time>2025-10-03T00:20:00.317Z</time>
</trkpt>
<trkpt lat="45.467545" lon="-75.549082">
<ele>35.2</ele>
<time>2025-10-03T00:20:01.317Z</time>
</trkpt>
<trkpt lat="45.467609" lon="-75.54885">
<ele>34.1</ele>
<time>2025-10-03T00:20:02.316Z</time>
</trkpt>
<trkpt lat="45.467665" lon="-75.548626">
<ele>33.8</ele>
<time>2025-10-03T00:20:03.318Z</time>
</trkpt>
<trkpt lat="45.467709" lon="-75.548394">
<ele>33.5</ele>
<time>2025-10-03T00:20:04.317Z</time>
</trkpt>
<trkpt lat="45.467735" lon="-75.548151">
<ele>33</ele>
<time>2025-10-03T00:20:05.317Z</time>
</trkpt>
<trkpt lat="45.467743" lon="-75.547901">
<ele>32.1</ele>
<time>2025-10-03T00:20:06.317Z</time>
</trkpt>
<trkpt lat="45.467732" lon="-75.54765">
<ele>32</ele>
<time>2025-10-03T00:20:07.318Z</time>
</trkpt>
<trkpt lat="45.46771" lon="-75.547399">
<ele>32</ele>
<time>2025-10-03T00:20:08.317Z</time>
</trkpt>
<trkpt lat="45.467685" lon="-75.54716">
<ele>32</ele>
<time>2025-10-03T00:20:09.316Z</time>
</trkpt>
<trkpt lat="45.467661" lon="-75.546945">
<ele>31.9</ele>
<time>2025-10-03T00:20:10.317Z</time>
</trkpt>
<trkpt lat="45.467641" lon="-75.546756">
<ele>31.7</ele>
<time>2025-10-03T00:20:11.317Z</time>
</trkpt>
<trkpt lat="45.467622" lon="-75.546574">
<ele>31.6</ele>
<time>2025-10-03T00:20:12.318Z</time>
</trkpt>
<trkpt lat="45.467604" lon="-75.546404">
<ele>31.6</ele>
<time>2025-10-03T00:20:13.317Z</time>
</trkpt>
<trkpt lat="45.467592" lon="-75.546249">
<ele>31.2</ele>
<time>2025-10-03T00:20:14.317Z</time>
</trkpt>
<trkpt lat="45.467588" lon="-75.546101">
<ele>30.8</ele>
<time>2025-10-03T00:20:15.317Z</time>
</trkpt>
<trkpt lat="45.467594" lon="-75.545956">
<ele>30.8</ele>
<time>2025-10-03T00:20:16.317Z</time>
</trkpt>
<trkpt lat="45.46761" lon="-75.545811">
<ele>30.8</ele>
<time>2025-10-03T00:20:17.317Z</time>
</trkpt>
<trkpt lat="45.46763" lon="-75.54567">
<ele>30.8</ele>
<time>2025-10-03T00:20:18.318Z</time>
</trkpt>
<trkpt lat="45.467649" lon="-75.54554">
<ele>30.7</ele>
<time>2025-10-03T00:20:19.317Z</time>
</trkpt>
<trkpt lat="45.467664" lon="-75.545417">
<ele>30.7</ele>
<time>2025-10-03T00:20:20.317Z</time>
</trkpt>
<trkpt lat="45.467666" lon="-75.545298">
<ele>30.6</ele>
<time>2025-10-03T00:20:21.317Z</time>
</trkpt>
<trkpt lat="45.467656" lon="-75.545181">
<ele>30.6</ele>
<time>2025-10-03T00:20:22.318Z</time>
</trkpt>
<trkpt lat="45.467628" lon="-75.545079">
<ele>30.6</ele>
<time>2025-10-03T00:20:23.318Z</time>
</trkpt>
<trkpt lat="45.467582" lon="-75.544993">
<ele>30.6</ele>
<time>2025-10-03T00:20:24.318Z</time>
</trkpt>
<trkpt lat="45.467522" lon="-75.544907">
<ele>30.3</ele>
<time>2025-10-03T00:20:25.317Z</time>
</trkpt>
<trkpt lat="45.467454" lon="-75.54481">
<ele>30.2</ele>
<time>2025-10-03T00:20:26.318Z</time>
</trkpt>
<trkpt lat="45.467379" lon="-75.544703">
<ele>29.8</ele>
<time>2025-10-03T00:20:27.317Z</time>
</trkpt>
<trkpt lat="45.467301" lon="-75.54459">
<ele>29.7</ele>
<time>2025-10-03T00:20:28.318Z</time>
</trkpt>
<trkpt lat="45.467222" lon="-75.544477">
<ele>29.6</ele>
<time>2025-10-03T00:20:29.317Z</time>
</trkpt>
<trkpt lat="45.467145" lon="-75.54436">
<ele>29.6</ele>
<time>2025-10-03T00:20:30.317Z</time>
</trkpt>
<trkpt lat="45.467074" lon="-75.544238">
<ele>29.5</ele>
<time>2025-10-03T00:20:31.318Z</time>
</trkpt>
<trkpt lat="45.467008" lon="-75.544112">
<ele>29.4</ele>
<time>2025-10-03T00:20:32.318Z</time>
</trkpt>
<trkpt lat="45.466945" lon="-75.543985">
<ele>29.3</ele>
<time>2025-10-03T00:20:33.318Z</time>
</trkpt>
<trkpt lat="45.46688" lon="-75.543854">
<ele>29.2</ele>
<time>2025-10-03T00:20:34.318Z</time>
</trkpt>
<trkpt lat="45.466812" lon="-75.543721">
<ele>29.2</ele>
<time>2025-10-03T00:20:35.318Z</time>
</trkpt>
<trkpt lat="45.466744" lon="-75.543586">
<ele>29.3</ele>
<time>2025-10-03T00:20:36.317Z</time>
</trkpt>
<trkpt lat="45.466674" lon="-75.543447">
<ele>29.3</ele>
<time>2025-10-03T00:20:37.317Z</time>
</trkpt>
<trkpt lat="45.466602" lon="-75.543302">
<ele>29.3</ele>
<time>2025-10-03T00:20:38.317Z</time>
</trkpt>
<trkpt lat="45.466529" lon="-75.543155">
<ele>29.3</ele>
<time>2025-10-03T00:20:39.318Z</time>
</trkpt>
<trkpt lat="45.466453" lon="-75.543007">
<ele>29.3</ele>
<time>2025-10-03T00:20:40.318Z</time>
</trkpt>
<trkpt lat="45.466375" lon="-75.542861">
<ele>29.4</ele>
<time>2025-10-03T00:20:41.317Z</time>
</trkpt>
<trkpt lat="45.466296" lon="-75.542713">
<ele>29.5</ele>
<time>2025-10-03T00:20:42.317Z</time>
</trkpt>
<trkpt lat="45.466216" lon="-75.54256">
<ele>29.5</ele>
<time>2025-10-03T00:20:43.317Z</time>
</trkpt>
<trkpt lat="45.466136" lon="-75.542406">
<ele>29.6</ele>
<time>2025-10-03T00:20:44.317Z</time>
</trkpt>
<trkpt lat="45.466056" lon="-75.542256">
<ele>29.6</ele>
<time>2025-10-03T00:20:45.318Z</time>
</trkpt>
<trkpt lat="45.465976" lon="-75.542105">
<ele>29.7</ele>
<time>2025-10-03T00:20:46.317Z</time>
</trkpt>
<trkpt lat="45.465891" lon="-75.541951">
<ele>29.7</ele>
<time>2025-10-03T00:20:47.318Z</time>
</trkpt>
<trkpt lat="45.465799" lon="-75.541797">
<ele>29.9</ele>
<time>2025-10-03T00:20:48.318Z</time>
</trkpt>
<trkpt lat="45.465704" lon="-75.541656">
<ele>30</ele>
<time>2025-10-03T00:20:49.318Z</time>
</trkpt>
<trkpt lat="45.465608" lon="-75.541528">
<ele>30.2</ele>
<time>2025-10-03T00:20:50.317Z</time>
</trkpt>
<trkpt lat="45.465511" lon="-75.541407">
<ele>30.5</ele>
<time>2025-10-03T00:20:51.318Z</time>
</trkpt>
<trkpt lat="45.465413" lon="-75.541297">
<ele>30.7</ele>
<time>2025-10-03T00:20:52.317Z</time>
</trkpt>
<trkpt lat="45.46531" lon="-75.5412">
<ele>31.1</ele>
<time>2025-10-03T00:20:53.318Z</time>
</trkpt>
<trkpt lat="45.465201" lon="-75.541106">
<ele>31.2</ele>
<time>2025-10-03T00:20:54.318Z</time>
</trkpt>
<trkpt lat="45.46509" lon="-75.541013">
<ele>31.6</ele>
<time>2025-10-03T00:20:55.318Z</time>
</trkpt>
<trkpt lat="45.464978" lon="-75.540916">
<ele>31.7</ele>
<time>2025-10-03T00:20:56.318Z</time>
</trkpt>
<trkpt lat="45.464871" lon="-75.54082">
<ele>32.2</ele>
<time>2025-10-03T00:20:57.318Z</time>
</trkpt>
<trkpt lat="45.464775" lon="-75.54072">
<ele>32.8</ele>
<time>2025-10-03T00:20:58.318Z</time>
</trkpt>
<trkpt lat="45.46469" lon="-75.540618">
<ele>33.1</ele>
<time>2025-10-03T00:20:59.318Z</time>
</trkpt>
<trkpt lat="45.464616" lon="-75.540527">
<ele>33.5</ele>
<time>2025-10-03T00:21:00.318Z</time>
</trkpt>
<trkpt lat="45.464554" lon="-75.540453">
<ele>33.8</ele>
<time>2025-10-03T00:21:01.317Z</time>
</trkpt>
<trkpt lat="45.464495" lon="-75.540395">
<ele>33.9</ele>
<time>2025-10-03T00:21:02.318Z</time>
</trkpt>
<trkpt lat="45.46444" lon="-75.540352">
<ele>34</ele>
<time>2025-10-03T00:21:03.318Z</time>
</trkpt>
<trkpt lat="45.4644" lon="-75.540329">
<ele>34</ele>
<time>2025-10-03T00:21:04.318Z</time>
</trkpt>
<trkpt lat="45.464375" lon="-75.540322">
<ele>34</ele>
<time>2025-10-03T00:21:05.318Z</time>
</trkpt>
<trkpt lat="45.464375" lon="-75.540322">
<ele>35.2</ele>
<time>2025-10-03T00:21:06.299Z</time>
</trkpt>
<trkpt lat="45.464319" lon="-75.540324">
<ele>35.2</ele>
<time>2025-10-03T00:21:07.318Z</time>
</trkpt>
<trkpt lat="45.464274" lon="-75.540332">
<ele>35.2</ele>
<time>2025-10-03T00:21:08.318Z</time>
</trkpt>
<trkpt lat="45.464218" lon="-75.540338">
<ele>35.2</ele>
<time>2025-10-03T00:21:09.317Z</time>
</trkpt>
<trkpt lat="45.464159" lon="-75.540331">
<ele>35.2</ele>
<time>2025-10-03T00:21:10.318Z</time>
</trkpt>
<trkpt lat="45.464103" lon="-75.540301">
<ele>35.2</ele>
<time>2025-10-03T00:21:11.318Z</time>
</trkpt>
<trkpt lat="45.464054" lon="-75.540243">
<ele>35.2</ele>
<time>2025-10-03T00:21:12.318Z</time>
</trkpt>
<trkpt lat="45.464004" lon="-75.54016">
<ele>35.2</ele>
<time>2025-10-03T00:21:13.318Z</time>
</trkpt>
<trkpt lat="45.463948" lon="-75.540063">
<ele>35.2</ele>
<time>2025-10-03T00:21:14.317Z</time>
</trkpt>
<trkpt lat="45.463883" lon="-75.539965">
<ele>35.2</ele>
<time>2025-10-03T00:21:15.318Z</time>
</trkpt>
<trkpt lat="45.463807" lon="-75.539876">
<ele>35.2</ele>
<time>2025-10-03T00:21:16.317Z</time>
</trkpt>
<trkpt lat="45.463724" lon="-75.539793">
<ele>35.2</ele>
<time>2025-10-03T00:21:17.317Z</time>
</trkpt>
<trkpt lat="45.463636" lon="-75.539711">
<ele>35.2</ele>
<time>2025-10-03T00:21:18.317Z</time>
</trkpt>
<trkpt lat="45.463548" lon="-75.53963">
<ele>35.2</ele>
<time>2025-10-03T00:21:19.319Z</time>
</trkpt>
<trkpt lat="45.463457" lon="-75.53955">
<ele>35.2</ele>
<time>2025-10-03T00:21:20.319Z</time>
</trkpt>
<trkpt lat="45.463359" lon="-75.539466">
<ele>35.2</ele>
<time>2025-10-03T00:21:21.318Z</time>
</trkpt>
<trkpt lat="45.463258" lon="-75.539377">
<ele>35.2</ele>
<time>2025-10-03T00:21:22.319Z</time>
</trkpt>
<trkpt lat="45.463152" lon="-75.539284">
<ele>37.1</ele>
<time>2025-10-03T00:21:23.318Z</time>
</trkpt>
<trkpt lat="45.463044" lon="-75.539188">
<ele>37.6</ele>
<time>2025-10-03T00:21:24.319Z</time>
</trkpt>
<trkpt lat="45.462936" lon="-75.539087">
<ele>38.1</ele>
<time>2025-10-03T00:21:25.317Z</time>
</trkpt>
<trkpt lat="45.462824" lon="-75.538982">
<ele>38.6</ele>
<time>2025-10-03T00:21:26.317Z</time>
</trkpt>
<trkpt lat="45.462713" lon="-75.538871">
<ele>39.3</ele>
<time>2025-10-03T00:21:27.318Z</time>
</trkpt>
<trkpt lat="45.462604" lon="-75.53875">
<ele>39.9</ele>
<time>2025-10-03T00:21:28.318Z</time>
</trkpt>
<trkpt lat="45.462501" lon="-75.538619">
<ele>40.8</ele>
<time>2025-10-03T00:21:29.319Z</time>
</trkpt>
<trkpt lat="45.462401" lon="-75.538479">
<ele>42</ele>
<time>2025-10-03T00:21:30.318Z</time>
</trkpt>
<trkpt lat="45.462313" lon="-75.538332">
<ele>42.8</ele>
<time>2025-10-03T00:21:31.319Z</time>
</trkpt>
<trkpt lat="45.462232" lon="-75.538178">
<ele>43.5</ele>
<time>2025-10-03T00:21:32.318Z</time>
</trkpt>
<trkpt lat="45.462155" lon="-75.53802">
<ele>44.8</ele>
<time>2025-10-03T00:21:33.319Z</time>
</trkpt>
<trkpt lat="45.462083" lon="-75.537852">
<ele>45.6</ele>
<time>2025-10-03T00:21:34.319Z</time>
</trkpt>
<trkpt lat="45.462018" lon="-75.53768">
<ele>46.3</ele>
<time>2025-10-03T00:21:35.319Z</time>
</trkpt>
<trkpt lat="45.461964" lon="-75.537508">
<ele>47.4</ele>
<time>2025-10-03T00:21:36.318Z</time>
</trkpt>
<trkpt lat="45.461919" lon="-75.537337">
<ele>48.2</ele>
<time>2025-10-03T00:21:37.318Z</time>
</trkpt>
<trkpt lat="45.461881" lon="-75.537165">
<ele>49.2</ele>
<time>2025-10-03T00:21:38.319Z</time>
</trkpt>
<trkpt lat="45.461847" lon="-75.536992">
<ele>50.1</ele>
<time>2025-10-03T00:21:39.319Z</time>
</trkpt>
<trkpt lat="45.461819" lon="-75.536817">
<ele>50.6</ele>
<time>2025-10-03T00:21:40.318Z</time>
</trkpt>
<trkpt lat="45.461796" lon="-75.536634">
<ele>51.5</ele>
<time>2025-10-03T00:21:41.319Z</time>
</trkpt>
<trkpt lat="45.461778" lon="-75.536441">
<ele>52</ele>
<time>2025-10-03T00:21:42.318Z</time>
</trkpt>
<trkpt lat="45.46176" lon="-75.536245">
<ele>52.5</ele>
<time>2025-10-03T00:21:43.318Z</time>
</trkpt>
<trkpt lat="45.461741" lon="-75.536046">
<ele>53.4</ele>
<time>2025-10-03T00:21:44.318Z</time>
</trkpt>
<trkpt lat="45.461723" lon="-75.535845">
<ele>53.9</ele>
<time>2025-10-03T00:21:45.319Z</time>
</trkpt>
<trkpt lat="45.461705" lon="-75.535647">
<ele>54.6</ele>
<time>2025-10-03T00:21:46.318Z</time>
</trkpt>
<trkpt lat="45.461688" lon="-75.535446">
<ele>55.1</ele>
<time>2025-10-03T00:21:47.318Z</time>
</trkpt>
<trkpt lat="45.461669" lon="-75.535243">
<ele>55.6</ele>
<time>2025-10-03T00:21:48.319Z</time>
</trkpt>
<trkpt lat="45.461651" lon="-75.535038">
<ele>55.8</ele>
<time>2025-10-03T00:21:49.319Z</time>
</trkpt>
<trkpt lat="45.461632" lon="-75.534833">
<ele>55.8</ele>
<time>2025-10-03T00:21:50.319Z</time>
</trkpt>
<trkpt lat="45.461612" lon="-75.534627">
<ele>56.2</ele>
<time>2025-10-03T00:21:51.319Z</time>
</trkpt>
<trkpt lat="45.461594" lon="-75.53442">
<ele>56.4</ele>
<time>2025-10-03T00:21:52.319Z</time>
</trkpt>
<trkpt lat="45.461579" lon="-75.534216">
<ele>56.6</ele>
<time>2025-10-03T00:21:53.319Z</time>
</trkpt>
<trkpt lat="45.461564" lon="-75.534012">
<ele>56.7</ele>
<time>2025-10-03T00:21:54.319Z</time>
</trkpt>
<trkpt lat="45.46155" lon="-75.533805">
<ele>56.8</ele>
<time>2025-10-03T00:21:55.319Z</time>
</trkpt>
<trkpt lat="45.461535" lon="-75.533595">
<ele>57</ele>
<time>2025-10-03T00:21:56.319Z</time>
</trkpt>
<trkpt lat="45.46152" lon="-75.533383">
<ele>57.1</ele>
<time>2025-10-03T00:21:57.319Z</time>
</trkpt>
<trkpt lat="45.461499" lon="-75.533166">
<ele>57.4</ele>
<time>2025-10-03T00:21:58.319Z</time>
</trkpt>
<trkpt lat="45.461481" lon="-75.532948">
<ele>57.5</ele>
<time>2025-10-03T00:21:59.319Z</time>
</trkpt>
<trkpt lat="45.461464" lon="-75.53273">
<ele>57.6</ele>
<time>2025-10-03T00:22:00.319Z</time>
</trkpt>
<trkpt lat="45.46144" lon="-75.532512">
<ele>57.9</ele>
<time>2025-10-03T00:22:01.319Z</time>
</trkpt>
<trkpt lat="45.461418" lon="-75.532298">
<ele>57.9</ele>
<time>2025-10-03T00:22:02.318Z</time>
</trkpt>
<trkpt lat="45.461397" lon="-75.532089">
<ele>58.2</ele>
<time>2025-10-03T00:22:03.319Z</time>
</trkpt>
<trkpt lat="45.461378" lon="-75.531886">
<ele>58.2</ele>
<time>2025-10-03T00:22:04.318Z</time>
</trkpt>
<trkpt lat="45.461358" lon="-75.531688">
<ele>58.2</ele>
<time>2025-10-03T00:22:05.318Z</time>
</trkpt>
<trkpt lat="45.461338" lon="-75.531496">
<ele>58.2</ele>
<time>2025-10-03T00:22:06.318Z</time>
</trkpt>
<trkpt lat="45.461322" lon="-75.531313">
<ele>58.2</ele>
<time>2025-10-03T00:22:07.318Z</time>
</trkpt>
<trkpt lat="45.461311" lon="-75.531136">
<ele>58.2</ele>
<time>2025-10-03T00:22:08.319Z</time>
</trkpt>
<trkpt lat="45.461312" lon="-75.530951">
<ele>58.2</ele>
<time>2025-10-03T00:22:09.319Z</time>
</trkpt>
<trkpt lat="45.461325" lon="-75.530772">
<ele>58.1</ele>
<time>2025-10-03T00:22:10.320Z</time>
</trkpt>
<trkpt lat="45.461351" lon="-75.530598">
<ele>58.1</ele>
<time>2025-10-03T00:22:11.318Z</time>
</trkpt>
<trkpt lat="45.461387" lon="-75.530429">
<ele>58.1</ele>
<time>2025-10-03T00:22:12.318Z</time>
</trkpt>
<trkpt lat="45.46142" lon="-75.530252">
<ele>58.2</ele>
<time>2025-10-03T00:22:13.319Z</time>
</trkpt>
<trkpt lat="45.46145" lon="-75.53008">
<ele>58.2</ele>
<time>2025-10-03T00:22:14.319Z</time>
</trkpt>
<trkpt lat="45.461478" lon="-75.529919">
<ele>58.3</ele>
<time>2025-10-03T00:22:15.318Z</time>
</trkpt>
<trkpt lat="45.461505" lon="-75.529757">
<ele>58.3</ele>
<time>2025-10-03T00:22:16.319Z</time>
</trkpt>
<trkpt lat="45.46153" lon="-75.529589">
<ele>58.4</ele>
<time>2025-10-03T00:22:17.318Z</time>
</trkpt>
<trkpt lat="45.461555" lon="-75.529418">
<ele>58.4</ele>
<time>2025-10-03T00:22:18.319Z</time>
</trkpt>
<trkpt lat="45.461578" lon="-75.529248">
<ele>58.4</ele>
<time>2025-10-03T00:22:19.319Z</time>
</trkpt>
<trkpt lat="45.461601" lon="-75.529076">
<ele>58.4</ele>
<time>2025-10-03T00:22:20.318Z</time>
</trkpt>
<trkpt lat="45.461625" lon="-75.528905">
<ele>58.4</ele>
<time>2025-10-03T00:22:21.319Z</time>
</trkpt>
<trkpt lat="45.46165" lon="-75.528734">
<ele>58.4</ele>
<time>2025-10-03T00:22:22.320Z</time>
</trkpt>
<trkpt lat="45.461674" lon="-75.528564">
<ele>58.4</ele>
<time>2025-10-03T00:22:23.320Z</time>
</trkpt>
<trkpt lat="45.461697" lon="-75.5284">
<ele>58.3</ele>
<time>2025-10-03T00:22:24.319Z</time>
</trkpt>
<trkpt lat="45.461719" lon="-75.52824">
<ele>58.3</ele>
<time>2025-10-03T00:22:25.319Z</time>
</trkpt>
<trkpt lat="45.461741" lon="-75.528085">
<ele>58.3</ele>
<time>2025-10-03T00:22:26.318Z</time>
</trkpt>
<trkpt lat="45.461764" lon="-75.527937">
<ele>58.2</ele>
<time>2025-10-03T00:22:27.319Z</time>
</trkpt>
<trkpt lat="45.461788" lon="-75.527792">
<ele>58.1</ele>
<time>2025-10-03T00:22:28.318Z</time>
</trkpt>
<trkpt lat="45.461813" lon="-75.527652">
<ele>58</ele>
<time>2025-10-03T00:22:29.320Z</time>
</trkpt>
<trkpt lat="45.461839" lon="-75.527524">
<ele>57.9</ele>
<time>2025-10-03T00:22:30.319Z</time>
</trkpt>
<trkpt lat="45.461864" lon="-75.527414">
<ele>57.8</ele>
<time>2025-10-03T00:22:31.319Z</time>
</trkpt>
<trkpt lat="45.461887" lon="-75.527313">
<ele>57.7</ele>
<time>2025-10-03T00:22:32.319Z</time>
</trkpt>
<trkpt lat="45.461906" lon="-75.527221">
<ele>57.5</ele>
<time>2025-10-03T00:22:33.320Z</time>
</trkpt>
<trkpt lat="45.46192" lon="-75.52714">
<ele>57.4</ele>
<time>2025-10-03T00:22:34.319Z</time>
</trkpt>
<trkpt lat="45.461931" lon="-75.527073">
<ele>57</ele>
<time>2025-10-03T00:22:35.319Z</time>
</trkpt>
<trkpt lat="45.461938" lon="-75.527023">
<ele>57</ele>
<time>2025-10-03T00:22:36.319Z</time>
</trkpt>
<trkpt lat="45.461943" lon="-75.526986">
<ele>56.9</ele>
<time>2025-10-03T00:22:37.319Z</time>
</trkpt>
<trkpt lat="45.461944" lon="-75.52696">
<ele>56.9</ele>
<time>2025-10-03T00:22:38.319Z</time>
</trkpt>
<trkpt lat="45.461946" lon="-75.526944">
<ele>56.8</ele>
<time>2025-10-03T00:22:39.319Z</time>
</trkpt>
<trkpt lat="45.461948" lon="-75.526934">
<ele>56.8</ele>
<time>2025-10-03T00:22:40.318Z</time>
</trkpt>
<trkpt lat="45.461949" lon="-75.526926">
<ele>56.8</ele>
<time>2025-10-03T00:22:41.319Z</time>
</trkpt>
<trkpt lat="45.46195" lon="-75.526914">
<ele>56.8</ele>
<time>2025-10-03T00:22:42.318Z</time>
</trkpt>
<trkpt lat="45.461953" lon="-75.526896">
<ele>56.8</ele>
<time>2025-10-03T00:22:43.319Z</time>
</trkpt>
<trkpt lat="45.461956" lon="-75.526874">
<ele>56.8</ele>
<time>2025-10-03T00:22:44.319Z</time>
</trkpt>
<trkpt lat="45.46196" lon="-75.526844">
<ele>56.9</ele>
<time>2025-10-03T00:22:45.320Z</time>
</trkpt>
<trkpt lat="45.461965" lon="-75.526805">
<ele>56.9</ele>
<time>2025-10-03T00:22:46.320Z</time>
</trkpt>
<trkpt lat="45.461969" lon="-75.526761">
<ele>56.9</ele>
<time>2025-10-03T00:22:47.319Z</time>
</trkpt>
<trkpt lat="45.461975" lon="-75.526722">
<ele>56.9</ele>
<time>2025-10-03T00:22:48.320Z</time>
</trkpt>
<trkpt lat="45.46198" lon="-75.526686">
<ele>56.9</ele>
<time>2025-10-03T00:22:49.320Z</time>
</trkpt>
<trkpt lat="45.461985" lon="-75.526654">
<ele>57</ele>
<time>2025-10-03T00:22:50.319Z</time>
</trkpt>
<trkpt lat="45.461989" lon="-75.526624">
<ele>57</ele>
<time>2025-10-03T00:22:51.320Z</time>
</trkpt>
<trkpt lat="45.461993" lon="-75.5266">
<ele>57</ele>
<time>2025-10-03T00:22:52.320Z</time>
</trkpt>
<trkpt lat="45.461995" lon="-75.526586">
<ele>57</ele>
<time>2025-10-03T00:22:53.320Z</time>
</trkpt>
<trkpt lat="45.461996" lon="-75.52658">
<ele>57</ele>
<time>2025-10-03T00:22:54.320Z</time>
</trkpt>
<trkpt lat="45.461996" lon="-75.526582">
<ele>57</ele>
<time>2025-10-03T00:22:55.319Z</time>
</trkpt>
<trkpt lat="45.461996" lon="-75.526583">
<ele>57</ele>
<time>2025-10-03T00:22:56.320Z</time>
</trkpt>
<trkpt lat="45.461995" lon="-75.526584">
<ele>57</ele>
<time>2025-10-03T00:22:57.320Z</time>
</trkpt>
<trkpt lat="45.461997" lon="-75.526569">
<ele>57</ele>
<time>2025-10-03T00:22:58.320Z</time>
</trkpt>
<trkpt lat="45.462004" lon="-75.526531">
<ele>57.1</ele>
<time>2025-10-03T00:22:59.319Z</time>
</trkpt>
<trkpt lat="45.46201" lon="-75.526488">
<ele>57.1</ele>
<time>2025-10-03T00:23:00.320Z</time>
</trkpt>
<trkpt lat="45.462023" lon="-75.526441">
<ele>57.1</ele>
<time>2025-10-03T00:23:01.320Z</time>
</trkpt>
<trkpt lat="45.46205" lon="-75.526394">
<ele>57.1</ele>
<time>2025-10-03T00:23:02.320Z</time>
</trkpt>
<trkpt lat="45.462096" lon="-75.526366">
<ele>57.2</ele>
<time>2025-10-03T00:23:03.320Z</time>
</trkpt>
<trkpt lat="45.462153" lon="-75.526366">
<ele>57.3</ele>
<time>2025-10-03T00:23:04.321Z</time>
</trkpt>
<trkpt lat="45.462219" lon="-75.526388">
<ele>57.3</ele>
<time>2025-10-03T00:23:05.319Z</time>
</trkpt>
<trkpt lat="45.4623" lon="-75.526424">
<ele>57.4</ele>
<time>2025-10-03T00:23:06.320Z</time>
</trkpt>
<trkpt lat="45.462396" lon="-75.52647">
<ele>57.5</ele>
<time>2025-10-03T00:23:07.320Z</time>
</trkpt>
<trkpt lat="45.462503" lon="-75.526526">
<ele>57.7</ele>
<time>2025-10-03T00:23:08.319Z</time>
</trkpt>
<trkpt lat="45.462623" lon="-75.526583">
<ele>57.9</ele>
<time>2025-10-03T00:23:09.319Z</time>
</trkpt>
<trkpt lat="45.46275" lon="-75.526639">
<ele>58.2</ele>
<time>2025-10-03T00:23:10.320Z</time>
</trkpt>
<trkpt lat="45.462878" lon="-75.526695">
<ele>58.5</ele>
<time>2025-10-03T00:23:11.320Z</time>
</trkpt>
<trkpt lat="45.463005" lon="-75.526748">
<ele>58.6</ele>
<time>2025-10-03T00:23:12.320Z</time>
</trkpt>
<trkpt lat="45.463128" lon="-75.526799">
<ele>58.7</ele>
<time>2025-10-03T00:23:13.320Z</time>
</trkpt>
<trkpt lat="45.463248" lon="-75.526849">
<ele>58.7</ele>
<time>2025-10-03T00:23:14.320Z</time>
</trkpt>
<trkpt lat="45.463359" lon="-75.526898">
<ele>58.7</ele>
<time>2025-10-03T00:23:15.320Z</time>
</trkpt>
<trkpt lat="45.463468" lon="-75.526945">
<ele>58.7</ele>
<time>2025-10-03T00:23:16.319Z</time>
</trkpt>
<trkpt lat="45.463574" lon="-75.526996">
<ele>58.7</ele>
<time>2025-10-03T00:23:17.320Z</time>
</trkpt>
<trkpt lat="45.463682" lon="-75.527054">
<ele>58.7</ele>
<time>2025-10-03T00:23:18.319Z</time>
</trkpt>
<trkpt lat="45.463791" lon="-75.527118">
<ele>58.7</ele>
<time>2025-10-03T00:23:19.320Z</time>
</trkpt>
<trkpt lat="45.463899" lon="-75.527187">
<ele>58.7</ele>
<time>2025-10-03T00:23:20.319Z</time>
</trkpt>
<trkpt lat="45.464006" lon="-75.527257">
<ele>58.7</ele>
<time>2025-10-03T00:23:21.320Z</time>
</trkpt>
<trkpt lat="45.464112" lon="-75.527326">
<ele>58.7</ele>
<time>2025-10-03T00:23:22.320Z</time>
</trkpt>
<trkpt lat="45.464214" lon="-75.527392">
<ele>58.7</ele>
<time>2025-10-03T00:23:23.320Z</time>
</trkpt>
<trkpt lat="45.464314" lon="-75.527455">
<ele>58.7</ele>
<time>2025-10-03T00:23:24.320Z</time>
</trkpt>
<trkpt lat="45.46441" lon="-75.527516">
<ele>58.7</ele>
<time>2025-10-03T00:23:25.320Z</time>
</trkpt>
<trkpt lat="45.464497" lon="-75.527572">
<ele>58.7</ele>
<time>2025-10-03T00:23:26.320Z</time>
</trkpt>
<trkpt lat="45.464575" lon="-75.527624">
<ele>58.7</ele>
<time>2025-10-03T00:23:27.319Z</time>
</trkpt>
<trkpt lat="45.464654" lon="-75.527676">
<ele>58.6</ele>
<time>2025-10-03T00:23:28.321Z</time>
</trkpt>
<trkpt lat="45.464728" lon="-75.527724">
<ele>58.4</ele>
<time>2025-10-03T00:23:29.320Z</time>
</trkpt>
<trkpt lat="45.464797" lon="-75.527761">
<ele>58.1</ele>
<time>2025-10-03T00:23:30.320Z</time>
</trkpt>
<trkpt lat="45.464864" lon="-75.527794">
<ele>57.9</ele>
<time>2025-10-03T00:23:31.320Z</time>
</trkpt>
<trkpt lat="45.464938" lon="-75.527828">
<ele>57.8</ele>
<time>2025-10-03T00:23:32.320Z</time>
</trkpt>
<trkpt lat="45.465002" lon="-75.527859">
<ele>57.7</ele>
<time>2025-10-03T00:23:33.320Z</time>
</trkpt>
<trkpt lat="45.465062" lon="-75.527892">
<ele>57.4</ele>
<time>2025-10-03T00:23:34.320Z</time>
</trkpt>
<trkpt lat="45.465117" lon="-75.527927">
<ele>57.2</ele>
<time>2025-10-03T00:23:35.320Z</time>
</trkpt>
<trkpt lat="45.465157" lon="-75.527957">
<ele>57</ele>
<time>2025-10-03T00:23:36.319Z</time>
</trkpt>
<trkpt lat="45.465187" lon="-75.52798">
<ele>56.6</ele>
<time>2025-10-03T00:23:37.319Z</time>
</trkpt>
<trkpt lat="45.465219" lon="-75.52799">
<ele>54.6</ele>
<time>2025-10-03T00:23:38.320Z</time>
</trkpt>
<trkpt lat="45.465258" lon="-75.52798">
<ele>54.6</ele>
<time>2025-10-03T00:23:39.321Z</time>
</trkpt>
<trkpt lat="45.465303" lon="-75.527947">
<ele>54.6</ele>
<time>2025-10-03T00:23:40.320Z</time>
</trkpt>
<trkpt lat="45.465338" lon="-75.527888">
<ele>54.6</ele>
<time>2025-10-03T00:23:41.320Z</time>
</trkpt>
<trkpt lat="45.465368" lon="-75.527792">
<ele>54.6</ele>
<time>2025-10-03T00:23:42.319Z</time>
</trkpt>
<trkpt lat="45.465389" lon="-75.527698">
<ele>54.6</ele>
<time>2025-10-03T00:23:43.320Z</time>
</trkpt>
<trkpt lat="45.465414" lon="-75.527581">
<ele>54.6</ele>
<time>2025-10-03T00:23:44.320Z</time>
</trkpt>
<trkpt lat="45.465435" lon="-75.527465">
<ele>54.6</ele>
<time>2025-10-03T00:23:45.321Z</time>
</trkpt>
<trkpt lat="45.465462" lon="-75.527345">
<ele>54.6</ele>
<time>2025-10-03T00:23:46.320Z</time>
</trkpt>
<trkpt lat="45.465489" lon="-75.52723">
<ele>54.6</ele>
<time>2025-10-03T00:23:47.321Z</time>
</trkpt>
<trkpt lat="45.465519" lon="-75.527127">
<ele>54.6</ele>
<time>2025-10-03T00:23:48.321Z</time>
</trkpt>
<trkpt lat="45.465547" lon="-75.527029">
<ele>54.6</ele>
<time>2025-10-03T00:23:49.320Z</time>
</trkpt>
<trkpt lat="45.465571" lon="-75.526935">
<ele>56.3</ele>
<time>2025-10-03T00:23:50.319Z</time>
</trkpt>
<trkpt lat="45.465596" lon="-75.526844">
<ele>56.5</ele>
<time>2025-10-03T00:23:51.319Z</time>
</trkpt>
<trkpt lat="45.465622" lon="-75.526752">
<ele>56.7</ele>
<time>2025-10-03T00:23:52.321Z</time>
</trkpt>
<trkpt lat="45.465644" lon="-75.52667">
<ele>56.7</ele>
<time>2025-10-03T00:23:53.320Z</time>
</trkpt>
<trkpt lat="45.46566" lon="-75.526597">
<ele>56.7</ele>
<time>2025-10-03T00:23:54.320Z</time>
</trkpt>
<trkpt lat="45.465677" lon="-75.526528">
<ele>56.7</ele>
<time>2025-10-03T00:23:55.320Z</time>
</trkpt>
<trkpt lat="45.46569" lon="-75.526461">
<ele>56.7</ele>
<time>2025-10-03T00:23:56.321Z</time>
</trkpt>
<trkpt lat="45.465706" lon="-75.526402">
<ele>56.7</ele>
<time>2025-10-03T00:23:57.320Z</time>
</trkpt>
<trkpt lat="45.465712" lon="-75.526358">
<ele>55.1</ele>
<time>2025-10-03T00:23:58.319Z</time>
</trkpt>
<trkpt lat="45.465719" lon="-75.526306">
<ele>55.1</ele>
<time>2025-10-03T00:23:59.319Z</time>
</trkpt>
<trkpt lat="45.465721" lon="-75.526263">
<ele>55.1</ele>
<time>2025-10-03T00:24:00.320Z</time>
</trkpt>
<trkpt lat="45.46572" lon="-75.526228">
<ele>55.1</ele>
<time>2025-10-03T00:24:01.320Z</time>
</trkpt>
<trkpt lat="45.465715" lon="-75.526194">
<ele>55.1</ele>
<time>2025-10-03T00:24:02.321Z</time>
</trkpt>
<trkpt lat="45.465715" lon="-75.526194">
<ele>54.9</ele>
<time>2025-10-03T00:24:03.253Z</time>
</trkpt>
<trkpt lat="45.465683" lon="-75.526152">
<ele>54.9</ele>
<time>2025-10-03T00:24:04.321Z</time>
</trkpt>
<trkpt lat="45.465658" lon="-75.526138">
<ele>54.9</ele>
<time>2025-10-03T00:24:05.321Z</time>
</trkpt>
<trkpt lat="45.465637" lon="-75.526132">
<ele>54.9</ele>
<time>2025-10-03T00:24:06.320Z</time>
</trkpt>
<trkpt lat="45.465615" lon="-75.52613">
<ele>54.9</ele>
<time>2025-10-03T00:24:07.321Z</time>
</trkpt>
<trkpt lat="45.465588" lon="-75.526127">
<ele>54.9</ele>
<time>2025-10-03T00:24:08.321Z</time>
</trkpt>
<trkpt lat="45.465568" lon="-75.526122">
<ele>54.9</ele>
<time>2025-10-03T00:24:09.320Z</time>
</trkpt>
<trkpt lat="45.465559" lon="-75.526125">
<ele>54.9</ele>
<time>2025-10-03T00:24:10.320Z</time>
</trkpt>
<trkpt lat="45.465536" lon="-75.526124">
<ele>54.9</ele>
<time>2025-10-03T00:24:11.321Z</time>
</trkpt>
<trkpt lat="45.465508" lon="-75.526116">
<ele>54.9</ele>
<time>2025-10-03T00:24:12.321Z</time>
</trkpt>
<trkpt lat="45.465488" lon="-75.526111">
<ele>54.9</ele>
<time>2025-10-03T00:24:13.321Z</time>
</trkpt>
<trkpt lat="45.46548" lon="-75.526106">
<ele>54.9</ele>
<time>2025-10-03T00:24:14.321Z</time>
</trkpt>
<trkpt lat="45.465485" lon="-75.526108">
<ele>54.9</ele>
<time>2025-10-03T00:24:15.320Z</time>
</trkpt>
<trkpt lat="45.465491" lon="-75.526114">
<ele>54.9</ele>
<time>2025-10-03T00:24:16.321Z</time>
</trkpt>
<trkpt lat="45.465491" lon="-75.526114">
<ele>54.9</ele>
<time>2025-10-03T00:24:17.321Z</time>
</trkpt>
<trkpt lat="45.465491" lon="-75.526114">
<ele>55.4</ele>
<time>2025-10-03T00:24:18.321Z</time>
</trkpt>
<trkpt lat="45.465491" lon="-75.526114">
<ele>55.4</ele>
<time>2025-10-03T00:24:19.321Z</time>
</trkpt>
<trkpt lat="45.465491" lon="-75.526114">
<ele>55.4</ele>
<time>2025-10-03T00:24:20.320Z</time>
</trkpt>
<trkpt lat="45.465491" lon="-75.526114">
<ele>55.4</ele>
<time>2025-10-03T00:24:21.320Z</time>
</trkpt>
<trkpt lat="45.465491" lon="-75.526114">
<ele>55.4</ele>
<time>2025-10-03T00:24:22.321Z</time>
</trkpt>
<trkpt lat="45.465491" lon="-75.526114">
<ele>55.4</ele>
<time>2025-10-03T00:24:23.321Z</time>
</trkpt>
<trkpt lat="45.465491" lon="-75.526114">
<ele>55.4</ele>
<time>2025-10-03T00:24:24.285Z</time>
</trkpt>
<trkpt lat="45.465491" lon="-75.526114">
<ele>55.4</ele>
<time>2025-10-03T00:24:25.320Z</time>
</trkpt>
<trkpt lat="45.465491" lon="-75.526114">
<ele>55.4</ele>
<time>2025-10-03T00:24:26.321Z</time>
</trkpt>
<trkpt lat="45.465491" lon="-75.526114">
<ele>55.4</ele>
<time>2025-10-03T00:24:27.321Z</time>
</trkpt>
<trkpt lat="45.465491" lon="-75.526114">
<ele>55.4</ele>
<time>2025-10-03T00:24:28.320Z</time>
</trkpt>
<trkpt lat="45.465491" lon="-75.526114">
<ele>55.4</ele>
<time>2025-10-03T00:24:29.321Z</time>
</trkpt>
<trkpt lat="45.465491" lon="-75.526114">
<ele>55.4</ele>
<time>2025-10-03T00:24:30.321Z</time>
</trkpt>
<trkpt lat="45.465491" lon="-75.526114">
<ele>55.1</ele>
<time>2025-10-03T00:24:31.320Z</time>
</trkpt>
<trkpt lat="45.465491" lon="-75.526114">
<ele>55.1</ele>
<time>2025-10-03T00:24:32.321Z</time>
</trkpt>
<trkpt lat="45.465491" lon="-75.526114">
<ele>55.1</ele>
<time>2025-10-03T00:24:33.320Z</time>
</trkpt>
<trkpt lat="45.465491" lon="-75.526114">
<ele>55.1</ele>
<time>2025-10-03T00:24:34.320Z</time>
</trkpt>
<trkpt lat="45.465491" lon="-75.526114">
<ele>55.1</ele>
<time>2025-10-03T00:24:35.321Z</time>
</trkpt>
<trkpt lat="45.465491" lon="-75.526114">
<ele>55.1</ele>
<time>2025-10-03T00:24:36.320Z</time>
</trkpt>
<trkpt lat="45.465491" lon="-75.526114">
<ele>54.9</ele>
<time>2025-10-03T00:24:37.320Z</time>
</trkpt>
<trkpt lat="45.465494" lon="-75.526119">
<ele>54.9</ele>
<time>2025-10-03T00:24:38.321Z</time>
</trkpt>
<trkpt lat="45.465481" lon="-75.526119">
<ele>54.9</ele>
<time>2025-10-03T00:24:39.321Z</time>
</trkpt>
<trkpt lat="45.465462" lon="-75.526118">
<ele>54.9</ele>
<time>2025-10-03T00:24:40.321Z</time>
</trkpt>
<trkpt lat="45.465444" lon="-75.526113">
<ele>54.9</ele>
<time>2025-10-03T00:24:41.320Z</time>
</trkpt>
<trkpt lat="45.465426" lon="-75.526105">
<ele>54.9</ele>
<time>2025-10-03T00:24:42.321Z</time>
</trkpt>
<trkpt lat="45.465415" lon="-75.526102">
<ele>54.9</ele>
<time>2025-10-03T00:24:43.321Z</time>
</trkpt>
<trkpt lat="45.465405" lon="-75.526098">
<ele>54.9</ele>
<time>2025-10-03T00:24:44.321Z</time>
</trkpt>
<trkpt lat="45.465396" lon="-75.526089">
<ele>54.9</ele>
<time>2025-10-03T00:24:45.321Z</time>
</trkpt>
<trkpt lat="45.465383" lon="-75.526078">
<ele>55.4</ele>
<time>2025-10-03T00:24:46.321Z</time>
</trkpt>
<trkpt lat="45.465363" lon="-75.526071">
<ele>55.4</ele>
<time>2025-10-03T00:24:47.321Z</time>
</trkpt>
<trkpt lat="45.465346" lon="-75.526068">
<ele>55.4</ele>
<time>2025-10-03T00:24:48.320Z</time>
</trkpt>
<trkpt lat="45.465335" lon="-75.526065">
<ele>55.4</ele>
<time>2025-10-03T00:24:49.320Z</time>
</trkpt>
<trkpt lat="45.465323" lon="-75.526059">
<ele>55.4</ele>
<time>2025-10-03T00:24:50.321Z</time>
</trkpt>
<trkpt lat="45.465316" lon="-75.526049">
<ele>55.4</ele>
<time>2025-10-03T00:24:51.321Z</time>
</trkpt>
<trkpt lat="45.465309" lon="-75.526038">
<ele>55.4</ele>
<time>2025-10-03T00:24:52.321Z</time>
</trkpt>
<trkpt lat="45.465306" lon="-75.52603">
<ele>54.9</ele>
<time>2025-10-03T00:24:53.321Z</time>
</trkpt>
<trkpt lat="45.465302" lon="-75.526022">
<ele>54.9</ele>
<time>2025-10-03T00:24:54.321Z</time>
</trkpt>
<trkpt lat="45.4653" lon="-75.526014">
<ele>54.9</ele>
<time>2025-10-03T00:24:55.321Z</time>
</trkpt>
<trkpt lat="45.4653" lon="-75.526011">
<ele>54.9</ele>
<time>2025-10-03T00:24:56.320Z</time>
</trkpt>
<trkpt lat="45.465298" lon="-75.526004">
<ele>54.9</ele>
<time>2025-10-03T00:24:57.321Z</time>
</trkpt>
<trkpt lat="45.465298" lon="-75.525998">
<ele>54.9</ele>
<time>2025-10-03T00:24:58.322Z</time>
</trkpt>
<trkpt lat="45.465298" lon="-75.525992">
<ele>54.9</ele>
<time>2025-10-03T00:24:59.320Z</time>
</trkpt>
<trkpt lat="45.465295" lon="-75.525975">
<ele>54.9</ele>
<time>2025-10-03T00:25:00.321Z</time>
</trkpt>
<trkpt lat="45.465295" lon="-75.525965">
<ele>54.9</ele>
<time>2025-10-03T00:25:01.320Z</time>
</trkpt>
<trkpt lat="45.465296" lon="-75.525959">
<ele>54.9</ele>
<time>2025-10-03T00:25:02.322Z</time>
</trkpt>
<trkpt lat="45.465296" lon="-75.525959">
<ele>54.9</ele>
<time>2025-10-03T00:25:03.321Z</time>
</trkpt>
<trkpt lat="45.465296" lon="-75.525959">
<ele>54.9</ele>
<time>2025-10-03T00:25:04.321Z</time>
</trkpt>
<trkpt lat="45.465296" lon="-75.525959">
<ele>54.9</ele>
<time>2025-10-03T00:25:05.321Z</time>
</trkpt>
<trkpt lat="45.465296" lon="-75.525959">
<ele>54.9</ele>
<time>2025-10-03T00:25:06.321Z</time>
</trkpt>
<trkpt lat="45.465292" lon="-75.525948">
<ele>54.9</ele>
<time>2025-10-03T00:25:07.322Z</time>
</trkpt>
<trkpt lat="45.46529" lon="-75.52592">
<ele>54.9</ele>
<time>2025-10-03T00:25:08.321Z</time>
</trkpt>
<trkpt lat="45.465294" lon="-75.525894">
<ele>54.9</ele>
<time>2025-10-03T00:25:09.321Z</time>
</trkpt>
<trkpt lat="45.465301" lon="-75.525863">
<ele>54.9</ele>
<time>2025-10-03T00:25:10.320Z</time>
</trkpt>
<trkpt lat="45.465309" lon="-75.525829">
<ele>54.9</ele>
<time>2025-10-03T00:25:11.322Z</time>
</trkpt>
<trkpt lat="45.465315" lon="-75.525797">
<ele>55.4</ele>
<time>2025-10-03T00:25:12.320Z</time>
</trkpt>
<trkpt lat="45.465321" lon="-75.525765">
<ele>55.4</ele>
<time>2025-10-03T00:25:13.321Z</time>
</trkpt>
<trkpt lat="45.465326" lon="-75.525725">
<ele>54.9</ele>
<time>2025-10-03T00:25:14.321Z</time>
</trkpt>
<trkpt lat="45.465332" lon="-75.525684">
<ele>54.9</ele>
<time>2025-10-03T00:25:15.322Z</time>
</trkpt>
<trkpt lat="45.465338" lon="-75.525646">
<ele>54.9</ele>
<time>2025-10-03T00:25:16.321Z</time>
</trkpt>
<trkpt lat="45.465344" lon="-75.525612">
<ele>54.9</ele>
<time>2025-10-03T00:25:17.322Z</time>
</trkpt>
<trkpt lat="45.465349" lon="-75.52558">
<ele>55.4</ele>
<time>2025-10-03T00:25:18.322Z</time>
</trkpt>
<trkpt lat="45.465356" lon="-75.525551">
<ele>55.4</ele>
<time>2025-10-03T00:25:19.321Z</time>
</trkpt>
<trkpt lat="45.465361" lon="-75.525526">
<ele>55.4</ele>
<time>2025-10-03T00:25:20.321Z</time>
</trkpt>
<trkpt lat="45.465364" lon="-75.5255">
<ele>55.4</ele>
<time>2025-10-03T00:25:21.321Z</time>
</trkpt>
<trkpt lat="45.465368" lon="-75.525476">
<ele>55.4</ele>
<time>2025-10-03T00:25:22.322Z</time>
</trkpt>
<trkpt lat="45.465372" lon="-75.525454">
<ele>55.4</ele>
<time>2025-10-03T00:25:23.322Z</time>
</trkpt>
<trkpt lat="45.465374" lon="-75.525438">
<ele>55.4</ele>
<time>2025-10-03T00:25:24.322Z</time>
</trkpt>
<trkpt lat="45.465375" lon="-75.525421">
<ele>54.9</ele>
<time>2025-10-03T00:25:25.322Z</time>
</trkpt>
<trkpt lat="45.465378" lon="-75.525404">
<ele>54.9</ele>
<time>2025-10-03T00:25:26.322Z</time>
</trkpt>
<trkpt lat="45.465379" lon="-75.52539">
<ele>54.9</ele>
<time>2025-10-03T00:25:27.322Z</time>
</trkpt>
<trkpt lat="45.465375" lon="-75.525372">
<ele>54.9</ele>
<time>2025-10-03T00:25:28.321Z</time>
</trkpt>
<trkpt lat="45.465374" lon="-75.525355">
<ele>54.9</ele>
<time>2025-10-03T00:25:29.322Z</time>
</trkpt>
<trkpt lat="45.465376" lon="-75.525339">
<ele>54.9</ele>
<time>2025-10-03T00:25:30.322Z</time>
</trkpt>
<trkpt lat="45.465377" lon="-75.525324">
<ele>54.9</ele>
<time>2025-10-03T00:25:31.321Z</time>
</trkpt>
<trkpt lat="45.465382" lon="-75.52531">
<ele>54.9</ele>
<time>2025-10-03T00:25:32.322Z</time>
</trkpt>
<trkpt lat="45.465386" lon="-75.525297">
<ele>54.9</ele>
<time>2025-10-03T00:25:33.322Z</time>
</trkpt>
<trkpt lat="45.465389" lon="-75.525289">
<ele>54.9</ele>
<time>2025-10-03T00:25:34.322Z</time>
</trkpt>
<trkpt lat="45.465389" lon="-75.525289">
<ele>54.9</ele>
<time>2025-10-03T00:25:35.322Z</time>
</trkpt>
<trkpt lat="45.465389" lon="-75.525289">
<ele>54.9</ele>
<time>2025-10-03T00:25:36.322Z</time>
</trkpt>
<trkpt lat="45.465389" lon="-75.525289">
<ele>54.9</ele>
<time>2025-10-03T00:25:37.306Z</time>
</trkpt>
<trkpt lat="45.465389" lon="-75.525289">
<ele>54.9</ele>
<time>2025-10-03T00:25:38.321Z</time>
</trkpt>
<trkpt lat="45.465389" lon="-75.525289">
<ele>54.9</ele>
<time>2025-10-03T00:25:39.322Z</time>
</trkpt>
<trkpt lat="45.465389" lon="-75.525289">
<ele>54.9</ele>
<time>2025-10-03T00:25:40.322Z</time>
</trkpt>
<trkpt lat="45.465389" lon="-75.525289">
<ele>54.9</ele>
<time>2025-10-03T00:25:41.322Z</time>
</trkpt>
<trkpt lat="45.465389" lon="-75.525289">
<ele>54.9</ele>
<time>2025-10-03T00:25:42.321Z</time>
</trkpt>
<trkpt lat="45.465389" lon="-75.525289">
<ele>54.9</ele>
<time>2025-10-03T00:25:43.321Z</time>
</trkpt>
<trkpt lat="45.465389" lon="-75.525289">
<ele>55.4</ele>
<time>2025-10-03T00:25:44.322Z</time>
</trkpt>
<trkpt lat="45.465389" lon="-75.525289">
<ele>55.4</ele>
<time>2025-10-03T00:25:45.322Z</time>
</trkpt>
<trkpt lat="45.465389" lon="-75.525289">
<ele>55.4</ele>
<time>2025-10-03T00:25:46.322Z</time>
</trkpt>
<trkpt lat="45.465389" lon="-75.525289">
<ele>54.9</ele>
<time>2025-10-03T00:25:47.322Z</time>
</trkpt>
<trkpt lat="45.465389" lon="-75.525289">
<ele>54.9</ele>
<time>2025-10-03T00:25:48.322Z</time>
</trkpt>
<trkpt lat="45.465389" lon="-75.525289">
<ele>54.9</ele>
<time>2025-10-03T00:25:49.321Z</time>
</trkpt>
<trkpt lat="45.465389" lon="-75.525289">
<ele>54.9</ele>
<time>2025-10-03T00:25:50.279Z</time>
</trkpt>
</trkseg>
</trk>
</gpx>
